zip,lat,lon,CSAFP,CBSAFP,GEOID,NAME,NAMELSAD,LSAD,MEMI,MTFCC,ALAND,AWATER,INTPTLAT,INTPTLON
"0",64.2877,-149.449,,,,,,,,,,,,
"1",46.42226,-86.6373,,,,,,,,,,,,
"6",18.25945,-66.8423,,"10380","10380","Aguadilla-Isabela, PR","Aguadilla-Isabela, PR Metro Area",M1,"1",G3110,"1222527908","358908897","+18.3569648","-067.0078951"
"7",18.15641,-66.1095,"490","41980","41980","San Juan-BayamÃ³n-Caguas, PR","San Juan-BayamÃ³n-Caguas, PR Metro Area",M1,"1",G3110,"3724758254","1458189611","+18.2944526","-066.0368437"
"8",17.96499,-64.8014,,,,,,,,,,,,
"9",18.37116,-66.0981,"490","41980","41980","San Juan-BayamÃ³n-Caguas, PR","San Juan-BayamÃ³n-Caguas, PR Metro Area",M1,"1",G3110,"3724758254","1458189611","+18.2944526","-066.0368437"
"10",42.25798,-72.5985,,"44140","44140","Springfield, MA","Springfield, MA Metro Area",M1,"1",G3110,"4774474260","156661220","+42.3648332","-072.6194063"
"11",42.10006,-72.5465,,"44140","44140","Springfield, MA","Springfield, MA Metro Area",M1,"1",G3110,"4774474260","156661220","+42.3648332","-072.6194063"
"12",42.36966,-73.2071,,"38340","38340","Pittsfield, MA","Pittsfield, MA Metro Area",M1,"1",G3110,"2400600620","50708156","+42.3714930","-073.2179276"
"13",42.58619,-72.5215,,"44140","44140","Springfield, MA","Springfield, MA Metro Area",M1,"1",G3110,"4774474260","156661220","+42.3648332","-072.6194063"
"14",42.59213,-71.8165,"148","49340","49340","Worcester, MA-CT","Worcester, MA-CT Metro Area",M1,"1",G3110,"5241033467","198933911","+42.2173112","-071.9255354"
"15",42.22982,-71.8555,"148","49340","49340","Worcester, MA-CT","Worcester, MA-CT Metro Area",M1,"1",G3110,"5241033467","198933911","+42.2173112","-071.9255354"
"16",42.27881,-71.8452,"148","49340","49340","Worcester, MA-CT","Worcester, MA-CT Metro Area",M1,"1",G3110,"5241033467","198933911","+42.2173112","-071.9255354"
"17",42.34211,-71.4545,"148","14460","14460","Boston-Cambridge-Newton, MA-NH","Boston-Cambridge-Newton, MA-NH Metro Area",M1,"1",G3110,"9029114828","2654672640","+42.5176060","-071.0219925"
"18",42.64068,-71.216,"148","14460","14460","Boston-Cambridge-Newton, MA-NH","Boston-Cambridge-Newton, MA-NH Metro Area",M1,"1",G3110,"9029114828","2654672640","+42.5176060","-071.0219925"
"19",42.65293,-70.8909,"148","14460","14460","Boston-Cambridge-Newton, MA-NH","Boston-Cambridge-Newton, MA-NH Metro Area",M1,"1",G3110,"9029114828","2654672640","+42.5176060","-071.0219925"
"20",42.13932,-71.1501,"148","14460","14460","Boston-Cambridge-Newton, MA-NH","Boston-Cambridge-Newton, MA-NH Metro Area",M1,"1",G3110,"9029114828","2654672640","+42.5176060","-071.0219925"
"21",42.31115,-71.0528,"148","14460","14460","Boston-Cambridge-Newton, MA-NH","Boston-Cambridge-Newton, MA-NH Metro Area",M1,"1",G3110,"9029114828","2654672640","+42.5176060","-071.0219925"
"22",42.34727,-71.0699,"148","14460","14460","Boston-Cambridge-Newton, MA-NH","Boston-Cambridge-Newton, MA-NH Metro Area",M1,"1",G3110,"9029114828","2654672640","+42.5176060","-071.0219925"
"23",41.96798,-70.8493,"148","14460","14460","Boston-Cambridge-Newton, MA-NH","Boston-Cambridge-Newton, MA-NH Metro Area",M1,"1",G3110,"9029114828","2654672640","+42.5176060","-071.0219925"
"24",42.35954,-71.2322,"148","14460","14460","Boston-Cambridge-Newton, MA-NH","Boston-Cambridge-Newton, MA-NH Metro Area",M1,"1",G3110,"9029114828","2654672640","+42.5176060","-071.0219925"
"25",41.5392,-70.5266,"148","12700","12700","Barnstable Town, MA","Barnstable Town, MA Metro Area",M1,"1",G3110,"1021019039","2360316945","+41.7990145","-070.2118803"
"26",41.7505,-70.1913,"148","12700","12700","Barnstable Town, MA","Barnstable Town, MA Metro Area",M1,"1",G3110,"1021019039","2360316945","+41.7990145","-070.2118803"
"27",41.76888,-71.0763,"148","39300","39300","Providence-Warwick, RI-MA","Providence-Warwick, RI-MA Metro Area",M1,"1",G3110,"4110331756","1681129044","+41.7068313","-071.2866369"
"28",41.65908,-71.5645,"148","39300","39300","Providence-Warwick, RI-MA","Providence-Warwick, RI-MA Metro Area",M1,"1",G3110,"4110331756","1681129044","+41.7068313","-071.2866369"
"29",41.8254,-71.467,"148","39300","39300","Providence-Warwick, RI-MA","Providence-Warwick, RI-MA Metro Area",M1,"1",G3110,"4110331756","1681129044","+41.7068313","-071.2866369"
"30",42.90441,-71.505,"148","31700","31700","Manchester-Nashua, NH","Manchester-Nashua, NH Metro Area",M1,"1",G3110,"2270197483","41314379","+42.9115317","-071.7230554"
"31",43.00073,-71.4692,"148","31700","31700","Manchester-Nashua, NH","Manchester-Nashua, NH Metro Area",M1,"1",G3110,"2270197483","41314379","+42.9115317","-071.7230554"
"32",43.57281,-71.6615,"148","29060","29060","Laconia, NH","Laconia, NH Micro Area",M2,"2",G3110,"1040771458","176549424","+43.5191091","-071.4253661"
"33",43.26194,-71.5635,"148","18180","18180","Concord, NH","Concord, NH Micro Area",M2,"2",G3110,"2416153059","57222878","+43.2995786","-071.6800412"
"34",42.90771,-72.1926,,"28300","28300","Keene, NH","Keene, NH Micro Area",M2,"2",G3110,"1830367250","57589034","+42.9254596","-072.2481828"
"35",44.65512,-71.3814,,"13620","13620","Berlin, NH","Berlin, NH Micro Area",M2,"2",G3110,"4647923684","92553609","+44.6525477","-071.2894309"
"36",43.17612,-72.3219,,"30100","30100","Lebanon, NH-VT","Lebanon, NH-VT Micro Area",M2,"2",G3110,"10108078296","175621707","+43.7857256","-072.1591415"
"37",43.70373,-72.1186,,"30100","30100","Lebanon, NH-VT","Lebanon, NH-VT Micro Area",M2,"2",G3110,"10108078296","175621707","+43.7857256","-072.1591415"
"38",43.55193,-71.0988,,,,,,,,,,,,
"39",43.23459,-70.7468,"438","38860","38860","Portland-South Portland, ME","Portland-South Portland, ME Metro Area",M1,"1",G3110,"5389744438","2010373968","+43.6514172","-070.4183755"
"40",43.77646,-70.5972,"438","38860","38860","Portland-South Portland, ME","Portland-South Portland, ME Metro Area",M1,"1",G3110,"5389744438","2010373968","+43.6514172","-070.4183755"
"41",43.68206,-70.2745,"438","38860","38860","Portland-South Portland, ME","Portland-South Portland, ME Metro Area",M1,"1",G3110,"5389744438","2010373968","+43.6514172","-070.4183755"
"42",44.4418,-70.5376,,,,,,,,,,,,
"43",44.30352,-69.7433,,"12300","12300","Augusta-Waterville, ME","Augusta-Waterville, ME Micro Area",M2,"2",G3110,"2246734973","216795650","+44.4170119","-069.7657639"
"44",45.31326,-68.7558,,"12620","12620","Bangor, ME","Bangor, ME Metro Area",M1,"1",G3110,"8798699751","413983068","+45.4092843","-068.6666160"
"45",43.99742,-69.5685,,,,,,,,,,,,
"46",44.7184,-67.8664,,,,,,,,,,,,
"47",46.60946,-68.3587,,,,,,,,,,,,
"48",44.18656,-69.1322,,,,,,,,,,,,
"49",44.97063,-69.9099,,,,,,,,,,,,
"50",43.86074,-72.4253,,"30100","30100","Lebanon, NH-VT","Lebanon, NH-VT Micro Area",M2,"2",G3110,"10108078296","175621707","+43.7857256","-072.1591415"
"51",43.28494,-72.6467,,"30100","30100","Lebanon, NH-VT","Lebanon, NH-VT Micro Area",M2,"2",G3110,"10108078296","175621707","+43.7857256","-072.1591415"
"52",43.02505,-73.1347,,"13540","13540","Bennington, VT","Bennington, VT Micro Area",M2,"2",G3110,"1748232505","6928230","+43.0353254","-073.1114603"
"53",42.9433,-72.7799,,,,,,,,,,,,
"54",44.59461,-73.0403,"162","15540","15540","Burlington-South Burlington, VT","Burlington-South Burlington, VT Metro Area",M1,"1",G3110,"3244001619","656739121","+44.6891168","-073.0411707"
"56",44.35275,-72.6022,"162","12740","12740","Barre, VT","Barre, VT Micro Area",M2,"2",G3110,"1779432159","21173948","+44.2749884","-072.6095138"
"57",43.69184,-73.0509,,"40860","40860","Rutland, VT","Rutland, VT Micro Area",M2,"2",G3110,"2408219235","38751950","+43.5808577","-073.0382023"
"58",44.68414,-72.1001,,,,,,,,,,,,
"59",44.78206,-71.682,,,,,,,,,,,,
"60",41.88461,-72.8166,"278","25540","25540","Hartford-East Hartford-Middletown, CT","Hartford-East Hartford-Middletown, CT Metro Area",M1,"1",G3110,"3922845118","238772610","+41.7186503","-072.5739191"
"61",41.74232,-72.6906,"278","25540","25540","Hartford-East Hartford-Middletown, CT","Hartford-East Hartford-Middletown, CT Metro Area",M1,"1",G3110,"3922845118","238772610","+41.7186503","-072.5739191"
"62",41.81143,-72.1142,"148","49340","49340","Worcester, MA-CT","Worcester, MA-CT Metro Area",M1,"1",G3110,"5241033467","198933911","+42.2173112","-071.9255354"
"63",41.50112,-72.0317,"278","35980","35980","Norwich-New London, CT","Norwich-New London, CT Metro Area",M1,"1",G3110,"1722711022","276663467","+41.4726517","-072.1086339"
"64",41.43909,-72.7496,"408","35300","35300","New Haven-Milford, CT","New Haven-Milford, CT Metro Area",M1,"1",G3110,"1565683007","667074958","+41.3497185","-072.9002033"
"65",41.35885,-72.9479,"408","35300","35300","New Haven-Milford, CT","New Haven-Milford, CT Metro Area",M1,"1",G3110,"1565683007","667074958","+41.3497185","-072.9002033"
"66",41.23756,-73.2193,"408","14860","14860","Bridgeport-Stamford-Norwalk, CT","Bridgeport-Stamford-Norwalk, CT Metro Area",M1,"1",G3110,"1618659464","549285481","+41.2274128","-073.3670614"
"67",41.67423,-73.2348,"408","45860","45860","Torrington, CT","Torrington, CT Micro Area",M2,"2",G3110,"2384120288","62342856","+41.7918833","-073.2354042"
"68",41.25176,-73.4512,"408","14860","14860","Bridgeport-Stamford-Norwalk, CT","Bridgeport-Stamford-Norwalk, CT Metro Area",M1,"1",G3110,"1618659464","549285481","+41.2274128","-073.3670614"
"69",41.1037,-73.5574,"408","14860","14860","Bridgeport-Stamford-Norwalk, CT","Bridgeport-Stamford-Norwalk, CT Metro Area",M1,"1",G3110,"1618659464","549285481","+41.2274128","-073.3670614"
"70",40.76053,-74.2801,"408","35620","35620","New York-Newark-Jersey City, NY-NJ-PA","New York-Newark-Jersey City, NY-NJ-PA Metro Area",M1,"1",G3110,"17314396895","6544075251","+40.7749300","-073.8737580"
"71",40.73967,-74.1768,"408","35620","35620","New York-Newark-Jersey City, NY-NJ-PA","New York-Newark-Jersey City, NY-NJ-PA Metro Area",M1,"1",G3110,"17314396895","6544075251","+40.7749300","-073.8737580"
"72",40.66777,-74.2154,"408","35620","35620","New York-Newark-Jersey City, NY-NJ-PA","New York-Newark-Jersey City, NY-NJ-PA Metro Area",M1,"1",G3110,"17314396895","6544075251","+40.7749300","-073.8737580"
"73",40.71909,-74.0668,"408","35620","35620","New York-Newark-Jersey City, NY-NJ-PA","New York-Newark-Jersey City, NY-NJ-PA Metro Area",M1,"1",G3110,"17314396895","6544075251","+40.7749300","-073.8737580"
"74",41.09925,-74.3922,"408","35620","35620","New York-Newark-Jersey City, NY-NJ-PA","New York-Newark-Jersey City, NY-NJ-PA Metro Area",M1,"1",G3110,"17314396895","6544075251","+40.7749300","-073.8737580"
"75",40.93162,-74.1808,"408","35620","35620","New York-Newark-Jersey City, NY-NJ-PA","New York-Newark-Jersey City, NY-NJ-PA Metro Area",M1,"1",G3110,"17314396895","6544075251","+40.7749300","-073.8737580"
"76",40.94294,-74.0101,"408","35620","35620","New York-Newark-Jersey City, NY-NJ-PA","New York-Newark-Jersey City, NY-NJ-PA Metro Area",M1,"1",G3110,"17314396895","6544075251","+40.7749300","-073.8737580"
"77",40.28457,-74.1703,"408","35620","35620","New York-Newark-Jersey City, NY-NJ-PA","New York-Newark-Jersey City, NY-NJ-PA Metro Area",M1,"1",G3110,"17314396895","6544075251","+40.7749300","-073.8737580"
"78",40.97464,-74.7997,"408","35620","35620","New York-Newark-Jersey City, NY-NJ-PA","New York-Newark-Jersey City, NY-NJ-PA Metro Area",M1,"1",G3110,"17314396895","6544075251","+40.7749300","-073.8737580"
"79",40.74252,-74.5456,"408","35620","35620","New York-Newark-Jersey City, NY-NJ-PA","New York-Newark-Jersey City, NY-NJ-PA Metro Area",M1,"1",G3110,"17314396895","6544075251","+40.7749300","-073.8737580"
"80",39.76599,-74.8598,"428","37980","37980","Philadelphia-Camden-Wilmington, PA-NJ-DE-MD","Philadelphia-Camden-Wilmington, PA-NJ-DE-MD Metro Area",M1,"1",G3110,"11921944534","692329123","+39.8949576","-075.3119824"
"81",39.94217,-75.0775,"428","37980","37980","Philadelphia-Camden-Wilmington, PA-NJ-DE-MD","Philadelphia-Camden-Wilmington, PA-NJ-DE-MD Metro Area",M1,"1",G3110,"11921944534","692329123","+39.8949576","-075.3119824"
"82",39.32773,-74.6781,"428","12100","12100","Atlantic City-Hammonton, NJ","Atlantic City-Hammonton, NJ Metro Area",M1,"1",G3110,"1438776649","301268696","+39.4693555","-074.6337591"
"83",39.43734,-75.0482,"428","47220","47220","Vineland-Bridgeton, NJ","Vineland-Bridgeton, NJ Metro Area",M1,"1",G3110,"1251898273","503713107","+39.3284336","-075.1216277"
"84",39.36209,-74.4692,"428","12100","12100","Atlantic City-Hammonton, NJ","Atlantic City-Hammonton, NJ Metro Area",M1,"1",G3110,"1438776649","301268696","+39.4693555","-074.6337591"
"85",40.25378,-74.6262,"408","45940","45940","Trenton-Princeton, NJ","Trenton-Princeton, NJ Metro Area",M1,"1",G3110,"581297755","11434826","+40.2825026","-074.7037240"
"86",40.20497,-74.6767,"408","45940","45940","Trenton-Princeton, NJ","Trenton-Princeton, NJ Metro Area",M1,"1",G3110,"581297755","11434826","+40.2825026","-074.7037240"
"87",39.95941,-74.2592,"408","35620","35620","New York-Newark-Jersey City, NY-NJ-PA","New York-Newark-Jersey City, NY-NJ-PA Metro Area",M1,"1",G3110,"17314396895","6544075251","+40.7749300","-073.8737580"
"88",40.5475,-74.7308,"408","35620","35620","New York-Newark-Jersey City, NY-NJ-PA","New York-Newark-Jersey City, NY-NJ-PA Metro Area",M1,"1",G3110,"17314396895","6544075251","+40.7749300","-073.8737580"
"89",40.45937,-74.4682,"408","35620","35620","New York-Newark-Jersey City, NY-NJ-PA","New York-Newark-Jersey City, NY-NJ-PA Metro Area",M1,"1",G3110,"17314396895","6544075251","+40.7749300","-073.8737580"
"100",40.78085,-73.9672,"408","35620","35620","New York-Newark-Jersey City, NY-NJ-PA","New York-Newark-Jersey City, NY-NJ-PA Metro Area",M1,"1",G3110,"17314396895","6544075251","+40.7749300","-073.8737580"
"101",40.78082,-73.9479,"408","35620","35620","New York-Newark-Jersey City, NY-NJ-PA","New York-Newark-Jersey City, NY-NJ-PA Metro Area",M1,"1",G3110,"17314396895","6544075251","+40.7749300","-073.8737580"
"102",40.71323,-74.0183,"408","35620","35620","New York-Newark-Jersey City, NY-NJ-PA","New York-Newark-Jersey City, NY-NJ-PA Metro Area",M1,"1",G3110,"17314396895","6544075251","+40.7749300","-073.8737580"
"103",40.58082,-74.1531,"408","35620","35620","New York-Newark-Jersey City, NY-NJ-PA","New York-Newark-Jersey City, NY-NJ-PA Metro Area",M1,"1",G3110,"17314396895","6544075251","+40.7749300","-073.8737580"
"104",40.84977,-73.8677,"408","35620","35620","New York-Newark-Jersey City, NY-NJ-PA","New York-Newark-Jersey City, NY-NJ-PA Metro Area",M1,"1",G3110,"17314396895","6544075251","+40.7749300","-073.8737580"
"105",41.26699,-73.7548,"408","35620","35620","New York-Newark-Jersey City, NY-NJ-PA","New York-Newark-Jersey City, NY-NJ-PA Metro Area",M1,"1",G3110,"17314396895","6544075251","+40.7749300","-073.8737580"
"106",41.03904,-73.759,"408","35620","35620","New York-Newark-Jersey City, NY-NJ-PA","New York-Newark-Jersey City, NY-NJ-PA Metro Area",M1,"1",G3110,"17314396895","6544075251","+40.7749300","-073.8737580"
"107",40.95192,-73.8621,"408","35620","35620","New York-Newark-Jersey City, NY-NJ-PA","New York-Newark-Jersey City, NY-NJ-PA Metro Area",M1,"1",G3110,"17314396895","6544075251","+40.7749300","-073.8737580"
"108",40.92293,-73.7887,"408","35620","35620","New York-Newark-Jersey City, NY-NJ-PA","New York-Newark-Jersey City, NY-NJ-PA Metro Area",M1,"1",G3110,"17314396895","6544075251","+40.7749300","-073.8737580"
"109",41.29844,-74.23,"408","39100","39100","Poughkeepsie-Newburgh-Middletown, NY","Poughkeepsie-Newburgh-Middletown, NY Metro Area",M1,"1",G3110,"4164607564","145019486","+41.5752737","-074.0338729"
"110",40.7749,-73.7023,"408","35620","35620","New York-Newark-Jersey City, NY-NJ-PA","New York-Newark-Jersey City, NY-NJ-PA Metro Area",M1,"1",G3110,"17314396895","6544075251","+40.7749300","-073.8737580"
"111",40.76094,-73.9262,"408","35620","35620","New York-Newark-Jersey City, NY-NJ-PA","New York-Newark-Jersey City, NY-NJ-PA Metro Area",M1,"1",G3110,"17314396895","6544075251","+40.7749300","-073.8737580"
"112",40.64584,-73.9481,"408","35620","35620","New York-Newark-Jersey City, NY-NJ-PA","New York-Newark-Jersey City, NY-NJ-PA Metro Area",M1,"1",G3110,"17314396895","6544075251","+40.7749300","-073.8737580"
"113",40.74947,-73.8349,"408","35620","35620","New York-Newark-Jersey City, NY-NJ-PA","New York-Newark-Jersey City, NY-NJ-PA Metro Area",M1,"1",G3110,"17314396895","6544075251","+40.7749300","-073.8737580"
"114",40.68353,-73.7846,"408","35620","35620","New York-Newark-Jersey City, NY-NJ-PA","New York-Newark-Jersey City, NY-NJ-PA Metro Area",M1,"1",G3110,"17314396895","6544075251","+40.7749300","-073.8737580"
"115",40.72533,-73.6238,"408","35620","35620","New York-Newark-Jersey City, NY-NJ-PA","New York-Newark-Jersey City, NY-NJ-PA Metro Area",M1,"1",G3110,"17314396895","6544075251","+40.7749300","-073.8737580"
"116",40.59121,-73.8237,"408","35620","35620","New York-Newark-Jersey City, NY-NJ-PA","New York-Newark-Jersey City, NY-NJ-PA Metro Area",M1,"1",G3110,"17314396895","6544075251","+40.7749300","-073.8737580"
"117",40.808,-73.2379,"408","35620","35620","New York-Newark-Jersey City, NY-NJ-PA","New York-Newark-Jersey City, NY-NJ-PA Metro Area",M1,"1",G3110,"17314396895","6544075251","+40.7749300","-073.8737580"
"118",40.76824,-73.4896,"408","35620","35620","New York-Newark-Jersey City, NY-NJ-PA","New York-Newark-Jersey City, NY-NJ-PA Metro Area",M1,"1",G3110,"17314396895","6544075251","+40.7749300","-073.8737580"
"119",40.93096,-72.5331,"408","35620","35620","New York-Newark-Jersey City, NY-NJ-PA","New York-Newark-Jersey City, NY-NJ-PA Metro Area",M1,"1",G3110,"17314396895","6544075251","+40.7749300","-073.8737580"
"120",42.78074,-74.0418,"104","10580","10580","Albany-Schenectady-Troy, NY","Albany-Schenectady-Troy, NY Metro Area",M1,"1",G3110,"7282218203","172501908","+42.7879202","-073.9423479"
"121",42.95282,-74.1524,"104","11220","11220","Amsterdam, NY","Amsterdam, NY Micro Area",M2,"2",G3110,"1044066970","18599188","+42.9008912","-074.4353575"
"122",42.6886,-73.802,"104","10580","10580","Albany-Schenectady-Troy, NY","Albany-Schenectady-Troy, NY Metro Area",M1,"1",G3110,"7282218203","172501908","+42.7879202","-073.9423479"
"123",42.82162,-73.9706,"104","10580","10580","Albany-Schenectady-Troy, NY","Albany-Schenectady-Troy, NY Metro Area",M1,"1",G3110,"7282218203","172501908","+42.7879202","-073.9423479"
"124",42.09866,-74.2673,"408","28740","28740","Kingston, NY","Kingston, NY Metro Area",M1,"1",G3110,"2911757960","94596776","+41.9472124","-074.2654582"
"125",41.80666,-73.8323,"408","39100","39100","Poughkeepsie-Newburgh-Middletown, NY","Poughkeepsie-Newburgh-Middletown, NY Metro Area",M1,"1",G3110,"4164607564","145019486","+41.5752737","-074.0338729"
"126",41.68672,-73.8881,"408","39100","39100","Poughkeepsie-Newburgh-Middletown, NY","Poughkeepsie-Newburgh-Middletown, NY Metro Area",M1,"1",G3110,"4164607564","145019486","+41.5752737","-074.0338729"
"127",41.74466,-74.7527,,,,,,,,,,,,
"128",43.6193,-73.8969,"104","24020","24020","Glens Falls, NY","Glens Falls, NY Metro Area",M1,"1",G3110,"4398795958","204881947","+43.4404503","-073.6367573"
"129",44.5293,-73.9976,,"31660","31660","Malone, NY","Malone, NY Micro Area",M2,"2",G3110,"4219644200","176695862","+44.5943758","-074.3106700"
"130",42.96299,-76.1725,"532","45060","45060","Syracuse, NY","Syracuse, NY Metro Area",M1,"1",G3110,"6176813093","1020700299","+43.0065163","-076.1961336"
"131",43.06805,-76.3518,"532","45060","45060","Syracuse, NY","Syracuse, NY Metro Area",M1,"1",G3110,"6176813093","1020700299","+43.0065163","-076.1961336"
"132",43.03852,-76.1868,"532","45060","45060","Syracuse, NY","Syracuse, NY Metro Area",M1,"1",G3110,"6176813093","1020700299","+43.0065163","-076.1961336"
"133",43.38919,-75.1557,,"46540","46540","Utica-Rome, NY","Utica-Rome, NY Metro Area",M1,"1",G3110,"6795795380","237711742","+43.3322796","-075.1731893"
"134",43.14731,-75.2652,,"46540","46540","Utica-Rome, NY","Utica-Rome, NY Metro Area",M1,"1",G3110,"6795795380","237711742","+43.3322796","-075.1731893"
"135",43.13353,-75.1696,,"46540","46540","Utica-Rome, NY","Utica-Rome, NY Metro Area",M1,"1",G3110,"6795795380","237711742","+43.3322796","-075.1731893"
"136",44.3199,-75.3985,,"36300","36300","Ogdensburg-Massena, NY","Ogdensburg-Massena, NY Micro Area",M2,"2",G3110,"6939877189","367298360","+44.4881125","-075.0743110"
"137",42.21771,-75.4155,,,,,,,,,,,,
"138",42.34015,-75.5904,,,,,,,,,,,,
"139",42.11862,-75.8949,,"13780","13780","Binghamton, NY","Binghamton, NY Metro Area",M1,"1",G3110,"3171256082","36169003","+42.1639276","-076.0229431"
"140",42.81293,-78.5976,"160","15380","15380","Buffalo-Cheektowaga, NY","Buffalo-Cheektowaga, NY Metro Area",M1,"1",G3110,"4053536100","2075733430","+43.0443711","-078.7773351"
"141",42.83832,-78.6749,"160","15380","15380","Buffalo-Cheektowaga, NY","Buffalo-Cheektowaga, NY Metro Area",M1,"1",G3110,"4053536100","2075733430","+43.0443711","-078.7773351"
"142",42.91793,-78.7919,"160","15380","15380","Buffalo-Cheektowaga, NY","Buffalo-Cheektowaga, NY Metro Area",M1,"1",G3110,"4053536100","2075733430","+43.0443711","-078.7773351"
"143",43.09905,-78.9837,"160","15380","15380","Buffalo-Cheektowaga, NY","Buffalo-Cheektowaga, NY Metro Area",M1,"1",G3110,"4053536100","2075733430","+43.0443711","-078.7773351"
"144",42.9572,-77.6286,"464","40380","40380","Rochester, NY","Rochester, NY Metro Area",M1,"1",G3110,"8458697204","5127742161","+43.1480380","-077.5232575"
"145",42.88775,-77.4244,"464","40380","40380","Rochester, NY","Rochester, NY Metro Area",M1,"1",G3110,"8458697204","5127742161","+43.1480380","-077.5232575"
"146",43.16791,-77.646,"464","40380","40380","Rochester, NY","Rochester, NY Metro Area",M1,"1",G3110,"8458697204","5127742161","+43.1480380","-077.5232575"
"147",42.20393,-78.836,"160","36460","36460","Olean, NY","Olean, NY Micro Area",M2,"2",G3110,"3388424412","36817330","+42.2390986","-078.6623320"
"148",42.29125,-77.1973,"236","18500","18500","Corning, NY","Corning, NY Micro Area",M2,"2",G3110,"3601520291","35040141","+42.2667252","-077.3855253"
"149",42.08934,-76.7922,"236","21300","21300","Elmira, NY","Elmira, NY Metro Area",M1,"1",G3110,"1055038227","8874756","+42.1552804","-076.7471791"
"150",40.49815,-80.1548,"430","38300","38300","Pittsburgh, PA","Pittsburgh, PA Metro Area",M1,"1",G3110,"13682806053","156642546","+40.4395249","-079.8360972"
"151",40.46004,-80.0147,"430","38300","38300","Pittsburgh, PA","Pittsburgh, PA Metro Area",M1,"1",G3110,"13682806053","156642546","+40.4395249","-079.8360972"
"152",40.4577,-79.9726,"430","38300","38300","Pittsburgh, PA","Pittsburgh, PA Metro Area",M1,"1",G3110,"13682806053","156642546","+40.4395249","-079.8360972"
"153",40.00698,-80.2401,,,,,,,,,,,,
"154",39.91527,-79.6447,"430","38300","38300","Pittsburgh, PA","Pittsburgh, PA Metro Area",M1,"1",G3110,"13682806053","156642546","+40.4395249","-079.8360972"
"155",39.94693,-78.7865,"306","43740","43740","Somerset, PA","Somerset, PA Micro Area",M2,"2",G3110,"2782573989","17026008","+39.9812968","-079.0284859"
"156",40.33269,-79.4688,"430","38300","38300","Pittsburgh, PA","Pittsburgh, PA Metro Area",M1,"1",G3110,"13682806053","156642546","+40.4395249","-079.8360972"
"157",40.71989,-79.0145,"430","26860","26860","Indiana, PA","Indiana, PA Micro Area",M2,"2",G3110,"2142730129","18052433","+40.6514319","-079.0875451"
"158",41.32546,-78.6439,,"41260","41260","St. Marys, PA","St. Marys, PA Micro Area",M2,"2",G3110,"2142883446","12791206","+41.4273317","-078.6539366"
"159",40.33877,-78.846,"306","27780","27780","Johnstown, PA","Johnstown, PA Metro Area",M1,"1",G3110,"1782850495","13649939","+40.5102221","-078.7104783"
"160",40.92918,-79.8988,"430","38300","38300","Pittsburgh, PA","Pittsburgh, PA Metro Area",M1,"1",G3110,"13682806053","156642546","+40.4395249","-079.8360972"
"161",41.19468,-80.3028,"566","49660","49660","Youngstown-Warren-Boardman, OH-PA","Youngstown-Warren-Boardman, OH-PA Metro Area",M1,"1",G3110,"4408418280","109334084","+41.2364600","-080.5617836"
"162",41.06182,-79.3694,,,,,,,,,,,,
"163",41.59321,-79.5551,,"36340","36340","Oil City, PA","Oil City, PA Micro Area",M2,"2",G3110,"1746388602","22149577","+41.4007143","-079.7658126"
"164",41.87163,-79.9995,"240","21500","21500","Erie, PA","Erie, PA Metro Area",M1,"1",G3110,"2069551279","1966249000","+42.1179519","-080.0963858"
"165",42.09073,-80.0418,"240","21500","21500","Erie, PA","Erie, PA Metro Area",M1,"1",G3110,"2069551279","1966249000","+42.1179519","-080.0963858"
"166",40.48753,-78.2805,"107","11020","11020","Altoona, PA","Altoona, PA Metro Area",M1,"1",G3110,"1361819111","3281615","+40.4986536","-078.3095974"
"167",41.76372,-78.4532,,"14620","14620","Bradford, PA","Bradford, PA Micro Area",M2,"2",G3110,"2536067959","13048802","+41.8145902","-078.5724631"
"168",40.97756,-77.9901,"524","44300","44300","State College, PA","State College, PA Metro Area",M1,"1",G3110,"2871502921","11214105","+40.9091275","-077.8478769"
"169",41.78874,-77.3774,,,,,,,,,,,,
"170",40.4186,-77.1303,"276","25420","25420","Harrisburg-Carlisle, PA","Harrisburg-Carlisle, PA Metro Area",M1,"1",G3110,"4200484170","109316016","+40.3359150","-077.0504897"
"171",40.32205,-76.8146,"276","25420","25420","Harrisburg-Carlisle, PA","Harrisburg-Carlisle, PA Metro Area",M1,"1",G3110,"4200484170","109316016","+40.3359150","-077.0504897"
"172",39.99065,-77.796,"548","16540","16540","Chambersburg-Waynesboro, PA","Chambersburg-Waynesboro, PA Metro Area",M1,"1",G3110,"2000245529","1547615","+39.9267722","-077.7245208"
"173",39.88466,-76.9265,"276","49620","49620","York-Hanover, PA","York-Hanover, PA Metro Area",M1,"1",G3110,"2342299893","16499345","+39.9217514","-076.7288887"
"174",39.97367,-76.7084,"276","49620","49620","York-Hanover, PA","York-Hanover, PA Metro Area",M1,"1",G3110,"2342299893","16499345","+39.9217514","-076.7288887"
"175",40.04265,-76.2305,,"29540","29540","Lancaster, PA","Lancaster, PA Metro Area",M1,"1",G3110,"2444751463","103278571","+40.0419921","-076.2501980"
"176",40.03642,-76.3073,,"29540","29540","Lancaster, PA","Lancaster, PA Metro Area",M1,"1",G3110,"2444751463","103278571","+40.0419921","-076.2501980"
"177",41.33597,-77.1823,"558","48700","48700","Williamsport, PA","Williamsport, PA Metro Area",M1,"1",G3110,"3182485518","39032440","+41.3438824","-077.0552624"
"178",40.92846,-76.7758,"146","44980","44980","Sunbury, PA","Sunbury, PA Micro Area",M2,"2",G3110,"1186233370","50558156","+40.8515244","-076.7098770"
"179",40.67991,-76.2975,,"39060","39060","Pottsville, PA","Pottsville, PA Micro Area",M2,"2",G3110,"2016645873","10834898","+40.7036820","-076.2177878"
"180",40.67093,-75.4505,,"10900","10900","Allentown-Bethlehem-Easton, PA-NJ","Allentown-Bethlehem-Easton, PA-NJ Metro Area",M1,"1",G3110,"3762895696","58376629","+40.7893392","-075.3981580"
"181",40.59878,-75.515,,"10900","10900","Allentown-Bethlehem-Easton, PA-NJ","Allentown-Bethlehem-Easton, PA-NJ Metro Area",M1,"1",G3110,"3762895696","58376629","+40.7893392","-075.3981580"
"182",40.90136,-75.8691,,"10900","10900","Allentown-Bethlehem-Easton, PA-NJ","Allentown-Bethlehem-Easton, PA-NJ Metro Area",M1,"1",G3110,"3762895696","58376629","+40.7893392","-075.3981580"
"183",41.12007,-75.1722,"408","20700","20700","East Stroudsburg, PA","East Stroudsburg, PA Metro Area",M1,"1",G3110,"1575379455","22872910","+41.0562401","-075.3290651"
"184",41.5341,-75.3829,,,,,,,,,,,,
"185",41.40653,-75.6591,,"42540","42540","Scranton--Wilkes-Barre, PA","Scranton--Wilkes-Barre, PA Metro Area",M1,"1",G3110,"4522236223","78142193","+41.3228806","-075.8981877"
"186",41.35498,-76.0931,,"42540","42540","Scranton--Wilkes-Barre, PA","Scranton--Wilkes-Barre, PA Metro Area",M1,"1",G3110,"4522236223","78142193","+41.3228806","-075.8981877"
"187",41.20747,-75.8664,,"42540","42540","Scranton--Wilkes-Barre, PA","Scranton--Wilkes-Barre, PA Metro Area",M1,"1",G3110,"4522236223","78142193","+41.3228806","-075.8981877"
"188",41.81907,-76.1319,,"42380","42380","Sayre, PA","Sayre, PA Micro Area",M2,"2",G3110,"2971786846","35239552","+41.7915044","-076.5021231"
"189",40.36614,-75.1603,"428","37980","37980","Philadelphia-Camden-Wilmington, PA-NJ-DE-MD","Philadelphia-Camden-Wilmington, PA-NJ-DE-MD Metro Area",M1,"1",G3110,"11921944534","692329123","+39.8949576","-075.3119824"
"190",40.05555,-75.1709,"428","37980","37980","Philadelphia-Camden-Wilmington, PA-NJ-DE-MD","Philadelphia-Camden-Wilmington, PA-NJ-DE-MD Metro Area",M1,"1",G3110,"11921944534","692329123","+39.8949576","-075.3119824"
"191",40.00188,-75.139,"428","37980","37980","Philadelphia-Camden-Wilmington, PA-NJ-DE-MD","Philadelphia-Camden-Wilmington, PA-NJ-DE-MD Metro Area",M1,"1",G3110,"11921944534","692329123","+39.8949576","-075.3119824"
"193",39.9254,-75.7692,"428","37980","37980","Philadelphia-Camden-Wilmington, PA-NJ-DE-MD","Philadelphia-Camden-Wilmington, PA-NJ-DE-MD Metro Area",M1,"1",G3110,"11921944534","692329123","+39.8949576","-075.3119824"
"194",40.18541,-75.4685,"428","37980","37980","Philadelphia-Camden-Wilmington, PA-NJ-DE-MD","Philadelphia-Camden-Wilmington, PA-NJ-DE-MD Metro Area",M1,"1",G3110,"11921944534","692329123","+39.8949576","-075.3119824"
"195",40.41596,-75.9023,"428","39740","39740","Reading, PA","Reading, PA Metro Area",M1,"1",G3110,"2218082423","24209929","+40.4139565","-075.9268598"
"196",40.33854,-75.9471,"428","39740","39740","Reading, PA","Reading, PA Metro Area",M1,"1",G3110,"2218082423","24209929","+40.4139565","-075.9268598"
"197",39.55335,-75.6595,"428","37980","37980","Philadelphia-Camden-Wilmington, PA-NJ-DE-MD","Philadelphia-Camden-Wilmington, PA-NJ-DE-MD Metro Area",M1,"1",G3110,"11921944534","692329123","+39.8949576","-075.3119824"
"198",39.76677,-75.5726,"428","37980","37980","Philadelphia-Camden-Wilmington, PA-NJ-DE-MD","Philadelphia-Camden-Wilmington, PA-NJ-DE-MD Metro Area",M1,"1",G3110,"11921944534","692329123","+39.8949576","-075.3119824"
"199",38.83496,-75.4674,"480","41540","41540","Salisbury, MD-DE","Salisbury, MD-DE Metro Area",M1,"1",G3110,"5435618392","2080118666","+38.3995211","-075.4782615"
"200",38.90633,-77.0312,"548","47900","47900","Washington-Arlington-Alexandria, DC-VA-MD-WV","Washington-Arlington-Alexandria, DC-VA-MD-WV Metro Area",M1,"1",G3110,"17010001633","1128154710","+38.7982054","-077.4868816"
"201",38.90645,-77.6781,"548","47900","47900","Washington-Arlington-Alexandria, DC-VA-MD-WV","Washington-Arlington-Alexandria, DC-VA-MD-WV Metro Area",M1,"1",G3110,"17010001633","1128154710","+38.7982054","-077.4868816"
"203",38.85835,-77.0104,"548","47900","47900","Washington-Arlington-Alexandria, DC-VA-MD-WV","Washington-Arlington-Alexandria, DC-VA-MD-WV Metro Area",M1,"1",G3110,"17010001633","1128154710","+38.7982054","-077.4868816"
"205",38.88681,-77.0098,"548","47900","47900","Washington-Arlington-Alexandria, DC-VA-MD-WV","Washington-Arlington-Alexandria, DC-VA-MD-WV Metro Area",M1,"1",G3110,"17010001633","1128154710","+38.7982054","-077.4868816"
"206",38.39704,-76.7754,"548","15680","15680","California-Lexington Park, MD","California-Lexington Park, MD Metro Area",M1,"1",G3110,"929021301","1050381198","+38.2202894","-076.5303837"
"207",38.88405,-76.7886,"548","47900","47900","Washington-Arlington-Alexandria, DC-VA-MD-WV","Washington-Arlington-Alexandria, DC-VA-MD-WV Metro Area",M1,"1",G3110,"17010001633","1128154710","+38.7982054","-077.4868816"
"208",39.1491,-77.2362,"548","47900","47900","Washington-Arlington-Alexandria, DC-VA-MD-WV","Washington-Arlington-Alexandria, DC-VA-MD-WV Metro Area",M1,"1",G3110,"17010001633","1128154710","+38.7982054","-077.4868816"
"209",39.06304,-77.0126,"548","47900","47900","Washington-Arlington-Alexandria, DC-VA-MD-WV","Washington-Arlington-Alexandria, DC-VA-MD-WV Metro Area",M1,"1",G3110,"17010001633","1128154710","+38.7982054","-077.4868816"
"210",39.39036,-76.526,"548","12580","12580","Baltimore-Columbia-Towson, MD","Baltimore-Columbia-Towson, MD Metro Area",M1,"1",G3110,"6737876069","1304109791","+39.3043610","-076.5495009"
"211",39.50479,-76.7182,"548","12580","12580","Baltimore-Columbia-Towson, MD","Baltimore-Columbia-Towson, MD Metro Area",M1,"1",G3110,"6737876069","1304109791","+39.3043610","-076.5495009"
"212",39.30798,-76.5719,"548","12580","12580","Baltimore-Columbia-Towson, MD","Baltimore-Columbia-Towson, MD Metro Area",M1,"1",G3110,"6737876069","1304109791","+39.3043610","-076.5495009"
"214",38.98985,-76.5048,"548","12580","12580","Baltimore-Columbia-Towson, MD","Baltimore-Columbia-Towson, MD Metro Area",M1,"1",G3110,"6737876069","1304109791","+39.3043610","-076.5495009"
"215",39.56199,-79.0713,,,,,,,,,,,,
"216",38.84415,-76.0266,"548","20660","20660","Easton, MD","Easton, MD Micro Area",M2,"2",G3110,"695561625","539363462","+38.7483486","-076.1784757"
"217",39.5202,-77.5001,"548","47900","47900","Washington-Arlington-Alexandria, DC-VA-MD-WV","Washington-Arlington-Alexandria, DC-VA-MD-WV Metro Area",M1,"1",G3110,"17010001633","1128154710","+38.7982054","-077.4868816"
"218",38.26017,-75.5932,"480","41540","41540","Salisbury, MD-DE","Salisbury, MD-DE Metro Area",M1,"1",G3110,"5435618392","2080118666","+38.3995211","-075.4782615"
"219",39.56846,-75.9419,"428","37980","37980","Philadelphia-Camden-Wilmington, PA-NJ-DE-MD","Philadelphia-Camden-Wilmington, PA-NJ-DE-MD Metro Area",M1,"1",G3110,"11921944534","692329123","+39.8949576","-075.3119824"
"220",38.78936,-77.2653,"548","47900","47900","Washington-Arlington-Alexandria, DC-VA-MD-WV","Washington-Arlington-Alexandria, DC-VA-MD-WV Metro Area",M1,"1",G3110,"17010001633","1128154710","+38.7982054","-077.4868816"
"221",38.71812,-77.3131,"548","47900","47900","Washington-Arlington-Alexandria, DC-VA-MD-WV","Washington-Arlington-Alexandria, DC-VA-MD-WV Metro Area",M1,"1",G3110,"17010001633","1128154710","+38.7982054","-077.4868816"
"222",38.87848,-77.101,"548","47900","47900","Washington-Arlington-Alexandria, DC-VA-MD-WV","Washington-Arlington-Alexandria, DC-VA-MD-WV Metro Area",M1,"1",G3110,"17010001633","1128154710","+38.7982054","-077.4868816"
"223",38.77657,-77.1011,"548","47900","47900","Washington-Arlington-Alexandria, DC-VA-MD-WV","Washington-Arlington-Alexandria, DC-VA-MD-WV Metro Area",M1,"1",G3110,"17010001633","1128154710","+38.7982054","-077.4868816"
"224",38.09909,-76.998,,,,,,,,,,,,
"225",38.0666,-77.2065,,,,,,,,,,,,
"226",39.03442,-78.2456,"548","49020","49020","Winchester, VA-WV","Winchester, VA-WV Metro Area",M1,"1",G3110,"2752545068","16892497","+39.2729744","-078.4718276"
"227",38.49778,-78.0632,"548","47900","47900","Washington-Arlington-Alexandria, DC-VA-MD-WV","Washington-Arlington-Alexandria, DC-VA-MD-WV Metro Area",M1,"1",G3110,"17010001633","1128154710","+38.7982054","-077.4868816"
"228",38.56491,-78.8009,"277","25500","25500","Harrisonburg, VA","Harrisonburg, VA Metro Area",M1,"1",G3110,"2245851996","10778789","+38.5075848","-078.8853213"
"229",38.02094,-78.5649,,"16820","16820","Charlottesville, VA","Charlottesville, VA Metro Area",M1,"1",G3110,"4259261435","35688522","+37.9490837","-078.5932062"
"230",37.62718,-77.5047,,"40060","40060","Richmond, VA","Richmond, VA Metro Area",M1,"1",G3110,"11300921951","330735784","+37.4113241","-077.4418164"
"231",37.59115,-77.3009,,"40060","40060","Richmond, VA","Richmond, VA Metro Area",M1,"1",G3110,"11300921951","330735784","+37.4113241","-077.4418164"
"232",37.50991,-77.4537,,"40060","40060","Richmond, VA","Richmond, VA Metro Area",M1,"1",G3110,"11300921951","330735784","+37.4113241","-077.4418164"
"233",37.10357,-76.0819,,,,,,,,,,,,
"234",37.02846,-76.2695,"545","47260","47260","Virginia Beach-Norfolk-Newport News, VA-NC","Virginia Beach-Norfolk-Newport News, VA-NC Metro Area",M1,"1",G3110,"9143783109","3427599741","+36.8044077","-076.4495261"
"235",36.89329,-76.2611,"545","47260","47260","Virginia Beach-Norfolk-Newport News, VA-NC","Virginia Beach-Norfolk-Newport News, VA-NC Metro Area",M1,"1",G3110,"9143783109","3427599741","+36.8044077","-076.4495261"
"236",37.11101,-76.4676,"545","47260","47260","Virginia Beach-Norfolk-Newport News, VA-NC","Virginia Beach-Norfolk-Newport News, VA-NC Metro Area",M1,"1",G3110,"9143783109","3427599741","+36.8044077","-076.4495261"
"237",36.84928,-76.3544,"545","47260","47260","Virginia Beach-Norfolk-Newport News, VA-NC","Virginia Beach-Norfolk-Newport News, VA-NC Metro Area",M1,"1",G3110,"9143783109","3427599741","+36.8044077","-076.4495261"
"238",36.94983,-77.3948,,"40060","40060","Richmond, VA","Richmond, VA Metro Area",M1,"1",G3110,"11300921951","330735784","+37.4113241","-077.4418164"
"239",37.02957,-78.3851,,,,,,,,,,,,
"240",37.15108,-80.0859,,"40220","40220","Roanoke, VA","Roanoke, VA Metro Area",M1,"1",G3110,"4837012569","72184539","+37.2862262","-079.9469346"
"241",37.07965,-80.1127,,,,,,,,,,,,
"242",36.84146,-82.4787,"304","28700","28700","Kingsport-Bristol, TN-VA","Kingsport-Bristol, TN-VA Metro Area",M1,"1",G3110,"5206814650","96147677","+36.6041611","-082.4401446"
"243",36.8558,-81.1299,,,,,,,,,,,,
"244",38.04003,-79.5278,,,,,,,,,,,,
"245",37.14618,-79.1109,,"31340","31340","Lynchburg, VA","Lynchburg, VA Metro Area",M1,"1",G3110,"5491925727","68559450","+37.3649258","-079.2166894"
"246",37.19314,-81.7969,,,,,,,,,,,,
"247",37.40283,-81.1691,,"14140","14140","Bluefield, WV-VA","Bluefield, WV-VA Micro Area",M2,"2",G3110,"3355079253","9910955","+37.2084876","-081.3348396"
"248",37.4703,-81.6455,,,,,,,,,,,,
"249",37.96808,-80.3083,,,,,,,,,,,,
"250",38.30369,-81.4389,"170","16620","16620","Charleston, WV","Charleston, WV Metro Area",M1,"1",G3110,"6854414859","56072912","+38.3551769","-081.6203407"
"251",38.31894,-81.5915,"170","16620","16620","Charleston, WV","Charleston, WV Metro Area",M1,"1",G3110,"6854414859","56072912","+38.3551769","-081.6203407"
"252",38.68654,-81.4698,,,,,,,,,,,,
"253",38.39504,-81.63,"170","16620","16620","Charleston, WV","Charleston, WV Metro Area",M1,"1",G3110,"6854414859","56072912","+38.3551769","-081.6203407"
"254",39.44944,-78.102,"548","25180","25180","Hagerstown-Martinsburg, MD-WV","Hagerstown-Martinsburg, MD-WV Metro Area",M1,"1",G3110,"2610678017","27260732","+39.5544327","-077.9845935"
"255",38.26622,-82.1837,"170","16620","16620","Charleston, WV","Charleston, WV Metro Area",M1,"1",G3110,"6854414859","56072912","+38.3551769","-081.6203407"
"256",37.76243,-82.0483,"170","34350","34350","Mount Gay-Shamrock, WV","Mount Gay-Shamrock, WV Micro Area",M2,"2",G3110,"1175258983","4780836","+37.8305905","-081.9408530"
"257",38.37816,-82.4254,"170","26580","26580","Huntington-Ashland, WV-KY-OH","Huntington-Ashland, WV-KY-OH Metro Area",M1,"1",G3110,"6474710090","94526967","+38.4065772","-082.5426456"
"258",37.83392,-81.1518,,"13220","13220","Beckley, WV","Beckley, WV Metro Area",M1,"1",G3110,"3281438992","27775053","+37.9053245","-081.1644363"
"259",37.81252,-80.9447,,"13220","13220","Beckley, WV","Beckley, WV Metro Area",M1,"1",G3110,"3281438992","27775053","+37.9053245","-081.1644363"
"260",40.05253,-80.6328,,"48540","48540","Wheeling, WV-OH","Wheeling, WV-OH Metro Area",M1,"1",G3110,"2443361485","49381782","+39.9755090","-080.8470113"
"261",39.21434,-81.2597,,,,,,,,,,,,
"262",38.75663,-80.0273,,"21180","21180","Elkins, WV","Elkins, WV Micro Area",M2,"2",G3110,"2692810851","667359","+38.7810953","-079.8677881"
"263",39.1753,-80.5688,,"17220","17220","Clarksburg, WV","Clarksburg, WV Micro Area",M2,"2",G3110,"2353008390","10803695","+39.2883500","-080.4315298"
"264",39.21735,-80.4202,,"17220","17220","Clarksburg, WV","Clarksburg, WV Micro Area",M2,"2",G3110,"2353008390","10803695","+39.2883500","-080.4315298"
"265",39.58634,-80.0551,"390","34060","34060","Morgantown, WV","Morgantown, WV Metro Area",M1,"1",G3110,"2613050897","21661985","+39.5251551","-079.8019121"
"266",38.47661,-80.8061,,,,,,,,,,,,
"267",39.32928,-78.9892,,"19060","19060","Cumberland, MD-WV","Cumberland, MD-WV Metro Area",M1,"1",G3110,"1942634638","18304844","+39.5321854","-078.8070822"
"268",38.88664,-79.0927,,,,,,,,,,,,
"270",36.24695,-80.4468,"268","49180","49180","Winston-Salem, NC","Winston-Salem, NC Metro Area",M1,"1",G3110,"5202351920","81366294","+36.0788515","-080.3450642"
"271",36.07365,-80.2465,"268","49180","49180","Winston-Salem, NC","Winston-Salem, NC Metro Area",M1,"1",G3110,"5202351920","81366294","+36.0788515","-080.3450642"
"272",35.8576,-79.7124,"268","24660","24660","Greensboro-High Point, NC","Greensboro-High Point, NC Metro Area",M1,"1",G3110,"5164166165","68541349","+36.0252039","-079.7926333"
"273",35.82823,-79.569,"268","24660","24660","Greensboro-High Point, NC","Greensboro-High Point, NC Metro Area",M1,"1",G3110,"5164166165","68541349","+36.0252039","-079.7926333"
"274",36.07095,-79.8171,"268","24660","24660","Greensboro-High Point, NC","Greensboro-High Point, NC Metro Area",M1,"1",G3110,"5164166165","68541349","+36.0252039","-079.7926333"
"275",35.93283,-78.545,"450","39580","39580","Raleigh-Cary, NC","Raleigh-Cary, NC Metro Area",M1,"1",G3110,"5485205355","76826615","+35.7567464","-078.4604412"
"276",35.80872,-78.6387,"450","39580","39580","Raleigh-Cary, NC","Raleigh-Cary, NC Metro Area",M1,"1",G3110,"5485205355","76826615","+35.7567464","-078.4604412"
"277",35.99707,-78.8872,"450","20500","20500","Durham-Chapel Hill, NC","Durham-Chapel Hill, NC Metro Area",M1,"1",G3110,"5931305968","154624603","+36.0605886","-078.9897875"
"278",35.86793,-77.2855,,,,,,,,,,,,
"279",36.09986,-76.4173,"545","21020","21020","Elizabeth City, NC","Elizabeth City, NC Micro Area",M2,"2",G3110,"1227785818","373504973","+36.1968134","-076.3426012"
"280",35.36117,-81.0001,"172","16740","16740","Charlotte-Concord-Gastonia, NC-SC","Charlotte-Concord-Gastonia, NC-SC Metro Area",M1,"1",G3110,"14495628697","302851379","+35.1663423","-080.7972848"
"281",35.24964,-80.7451,"172","16740","16740","Charlotte-Concord-Gastonia, NC-SC","Charlotte-Concord-Gastonia, NC-SC Metro Area",M1,"1",G3110,"14495628697","302851379","+35.1663423","-080.7972848"
"282",35.21093,-80.8305,"172","16740","16740","Charlotte-Concord-Gastonia, NC-SC","Charlotte-Concord-Gastonia, NC-SC Metro Area",M1,"1",G3110,"14495628697","302851379","+35.1663423","-080.7972848"
"283",34.955,-78.9275,"246","22180","22180","Fayetteville, NC","Fayetteville, NC Metro Area",M1,"1",G3110,"4241646488","35598509","+35.1559863","-078.9318500"
"284",34.38348,-78.2227,,"48900","48900","Wilmington, NC","Wilmington, NC Metro Area",M1,"1",G3110,"2754572932","516647220","+34.4260331","-077.8896340"
"285",35.04257,-77.2224,"404","35100","35100","New Bern, NC","New Bern, NC Metro Area",M1,"1",G3110,"3922397681","761870630","+35.1168292","-077.0813197"
"286",36.05915,-81.3514,,"35900","35900","North Wilkesboro, NC","North Wilkesboro, NC Micro Area",M2,"2",G3110,"1954249757","6862433","+36.2088833","-081.1660949"
"287",35.50449,-82.8244,"120","11700","11700","Asheville, NC","Asheville, NC Metro Area",M1,"1",G3110,"5264448603","21769667","+35.5956693","-082.6816145"
"288",35.5803,-82.5524,"120","11700","11700","Asheville, NC","Asheville, NC Metro Area",M1,"1",G3110,"5264448603","21769667","+35.5956693","-082.6816145"
"289",35.10927,-83.963,,,,,,,,,,,,
"290",34.00482,-80.8217,"192","17900","17900","Columbia, SC","Columbia, SC Metro Area",M1,"1",G3110,"9591599178","338696351","+34.0775845","-081.0378453"
"291",33.9231,-80.8895,"192","17900","17900","Columbia, SC","Columbia, SC Metro Area",M1,"1",G3110,"9591599178","338696351","+34.0775845","-081.0378453"
"292",34.05481,-80.97,"192","17900","17900","Columbia, SC","Columbia, SC Metro Area",M1,"1",G3110,"9591599178","338696351","+34.0775845","-081.0378453"
"293",34.7815,-81.8634,"273","43900","43900","Spartanburg, SC","Spartanburg, SC Metro Area",M1,"1",G3110,"2092048331","29186811","+34.9332708","-081.9910522"
"294",33.05803,-80.0868,,"16700","16700","Charleston-North Charleston, SC","Charleston-North Charleston, SC Metro Area",M1,"1",G3110,"6708606016","1483664805","+33.0180695","-080.0075006"
"295",34.06564,-79.499,,,,,,,,,,,,
"296",34.60949,-82.5689,"273","24860","24860","Greenville-Anderson, SC","Greenville-Anderson, SC Metro Area",M1,"1",G3110,"7018159384","200250003","+34.6837085","-082.4134227"
"297",34.83642,-80.9362,"172","16740","16740","Charlotte-Concord-Gastonia, NC-SC","Charlotte-Concord-Gastonia, NC-SC Metro Area",M1,"1",G3110,"14495628697","302851379","+35.1663423","-080.7972848"
"298",33.49329,-81.731,,"12260","12260","Augusta-Richmond County, GA-SC","Augusta-Richmond County, GA-SC Metro Area",M1,"1",G3110,"9015028913","262514053","+33.4603713","-081.9828327"
"299",32.54423,-80.9532,,"25940","25940","Hilton Head Island-Bluffton, SC","Hilton Head Island-Bluffton, SC Metro Area",M1,"1",G3110,"3189082863","1019806214","+32.3867916","-080.8308775"
"300",33.84902,-84.0648,"122","12060","12060","Atlanta-Sandy Springs-Alpharetta, GA","Atlanta-Sandy Springs-Alpharetta, GA Metro Area",M1,"1",G3110,"22494938651","387716575","+33.6937280","-084.3999113"
"301",34.0405,-84.9071,"122","12060","12060","Atlanta-Sandy Springs-Alpharetta, GA","Atlanta-Sandy Springs-Alpharetta, GA Metro Area",M1,"1",G3110,"22494938651","387716575","+33.6937280","-084.3999113"
"302",33.24131,-84.5459,"122","12060","12060","Atlanta-Sandy Springs-Alpharetta, GA","Atlanta-Sandy Springs-Alpharetta, GA Metro Area",M1,"1",G3110,"22494938651","387716575","+33.6937280","-084.3999113"
"303",33.77258,-84.4231,"122","12060","12060","Atlanta-Sandy Springs-Alpharetta, GA","Atlanta-Sandy Springs-Alpharetta, GA Metro Area",M1,"1",G3110,"22494938651","387716575","+33.6937280","-084.3999113"
"304",32.4894,-82.1079,,,,,,,,,,,,
"305",34.57912,-83.8014,,,,,,,,,,,,
"306",33.85902,-83.1373,"122","12020","12020","Athens-Clarke County, GA","Athens-Clarke County, GA Metro Area",M1,"1",G3110,"2654601832","26140309","+33.9439840","-083.2138965"
"307",34.70861,-85.1093,"174","16860","16860","Chattanooga, TN-GA","Chattanooga, TN-GA Metro Area",M1,"1",G3110,"5410495665","126467844","+35.0493612","-085.3611582"
"308",33.35721,-82.3429,,"12260","12260","Augusta-Richmond County, GA-SC","Augusta-Richmond County, GA-SC Metro Area",M1,"1",G3110,"9015028913","262514053","+33.4603713","-081.9828327"
"309",33.3964,-82.0669,,"12260","12260","Augusta-Richmond County, GA-SC","Augusta-Richmond County, GA-SC Metro Area",M1,"1",G3110,"9015028913","262514053","+33.4603713","-081.9828327"
"310",32.63239,-83.4067,"356","31420","31420","Macon-Bibb County, GA","Macon-Bibb County, GA Metro Area",M1,"1",G3110,"4464115654","36457662","+32.8562163","-083.7143050"
"312",32.83593,-83.6346,"356","31420","31420","Macon-Bibb County, GA","Macon-Bibb County, GA Metro Area",M1,"1",G3110,"4464115654","36457662","+32.8562163","-083.7143050"
"313",31.90951,-81.4827,"496","25980","25980","Hinesville, GA","Hinesville, GA Metro Area",M1,"1",G3110,"2374665905","231741565","+31.7787881","-081.5764801"
"314",31.99268,-81.116,"496","42340","42340","Savannah, GA","Savannah, GA Metro Area",M1,"1",G3110,"3495144661","564230506","+32.1091533","-081.2731066"
"315",31.29598,-82.1927,,"48180","48180","Waycross, GA","Waycross, GA Micro Area",M2,"2",G3110,"3210741327","29895759","+31.1331137","-082.3686504"
"316",30.96753,-83.0964,,"46660","46660","Valdosta, GA","Valdosta, GA Metro Area",M1,"1",G3110,"4162853252","55936619","+30.8271579","-083.2435547"
"317",31.48155,-83.8596,,"10500","10500","Albany, GA","Albany, GA Metro Area",M1,"1",G3110,"4120611855","46222654","+31.6444531","-084.1119078"
"318",32.44897,-84.6898,"194","17980","17980","Columbus, GA-AL","Columbus, GA-AL Metro Area",M1,"1",G3110,"7216623630","82416597","+32.4193768","-084.8437095"
"319",32.43203,-84.8442,"194","17980","17980","Columbus, GA-AL","Columbus, GA-AL Metro Area",M1,"1",G3110,"7216623630","82416597","+32.4193768","-084.8437095"
"320",30.21771,-82.4199,"300","27260","27260","Jacksonville, FL","Jacksonville, FL Metro Area",M1,"1",G3110,"8292416990","1286478563","+30.2365943","-081.7544462"
"321",29.36467,-81.5188,"300","37260","37260","Palatka, FL","Palatka, FL Micro Area",M2,"2",G3110,"1885167063","256548276","+29.5938964","-081.7320389"
"322",30.30493,-81.6869,"300","27260","27260","Jacksonville, FL","Jacksonville, FL Metro Area",M1,"1",G3110,"8292416990","1286478563","+30.2365943","-081.7544462"
"323",30.25485,-84.1997,,"45220","45220","Tallahassee, FL","Tallahassee, FL Metro Area",M1,"1",G3110,"6184099863","556556962","+30.3864255","-084.2804096"
"324",30.52667,-85.5732,,,,,,,,,,,,
"325",30.71702,-86.9355,"426","37860","37860","Pensacola-Ferry Pass-Brent, FL","Pensacola-Ferry Pass-Brent, FL Metro Area",M1,"1",G3110,"4323603530","981940004","+30.6554013","-087.1618275"
"326",29.58229,-82.6065,"264","23540","23540","Gainesville, FL","Gainesville, FL Metro Area",M1,"1",G3110,"6069523396","1018865181","+29.4807065","-082.6274667"
"327",28.80307,-81.2885,"422","36740","36740","Orlando-Kissimmee-Sanford, FL","Orlando-Kissimmee-Sanford, FL Metro Area",M1,"1",G3110,"9037795130","1352006478","+28.4343962","-081.3560839"
"328",28.5072,-81.1723,"422","36740","36740","Orlando-Kissimmee-Sanford, FL","Orlando-Kissimmee-Sanford, FL Metro Area",M1,"1",G3110,"9037795130","1352006478","+28.4343962","-081.3560839"
"329",27.96772,-80.6464,,"37340","37340","Palm Bay-Melbourne-Titusville, FL","Palm Bay-Melbourne-Titusville, FL Metro Area",M1,"1",G3110,"2628793422","1403880653","+28.2983112","-080.7003334"
"330",25.53167,-80.5414,"370","33100","33100","Miami-Fort Lauderdale-Pompano Beach, FL","Miami-Fort Lauderdale-Pompano Beach, FL Metro Area",M1,"1",G3110,"13123323711","2771846854","+26.1018281","-080.4787552"
"331",25.78074,-80.5089,"370","33100","33100","Miami-Fort Lauderdale-Pompano Beach, FL","Miami-Fort Lauderdale-Pompano Beach, FL Metro Area",M1,"1",G3110,"13123323711","2771846854","+26.1018281","-080.4787552"
"333",26.11902,-80.2636,"370","33100","33100","Miami-Fort Lauderdale-Pompano Beach, FL","Miami-Fort Lauderdale-Pompano Beach, FL Metro Area",M1,"1",G3110,"13123323711","2771846854","+26.1018281","-080.4787552"
"334",26.72116,-80.6895,"370","33100","33100","Miami-Fort Lauderdale-Pompano Beach, FL","Miami-Fort Lauderdale-Pompano Beach, FL Metro Area",M1,"1",G3110,"13123323711","2771846854","+26.1018281","-080.4787552"
"335",28.20484,-82.2103,,"45300","45300","Tampa-St. Petersburg-Clearwater, FL","Tampa-St. Petersburg-Clearwater, FL Metro Area",M1,"1",G3110,"6514447222","2113705048","+28.1259071","-082.4652858"
"336",28.01393,-82.4567,,"45300","45300","Tampa-St. Petersburg-Clearwater, FL","Tampa-St. Petersburg-Clearwater, FL Metro Area",M1,"1",G3110,"6514447222","2113705048","+28.1259071","-082.4652858"
"337",27.85657,-82.7232,,"45300","45300","Tampa-St. Petersburg-Clearwater, FL","Tampa-St. Petersburg-Clearwater, FL Metro Area",M1,"1",G3110,"6514447222","2113705048","+28.1259071","-082.4652858"
"338",27.72654,-81.6294,"422","29460","29460","Lakeland-Winter Haven, FL","Lakeland-Winter Haven, FL Metro Area",M1,"1",G3110,"4655603728","551339930","+27.9536488","-081.6935337"
"339",26.75365,-81.6936,"163","15980","15980","Cape Coral-Fort Myers, FL","Cape Coral-Fort Myers, FL Metro Area",M1,"1",G3110,"2023963480","1116067200","+26.5590348","-081.8919943"
"341",26.13525,-81.342,"163","34940","34940","Naples-Marco Island, FL","Naples-Marco Island, FL Metro Area",M1,"1",G3110,"5172045734","797817705","+26.1187860","-081.4009553"
"342",27.28927,-82.149,"412","35840","35840","North Port-Sarasota-Bradenton, FL","North Port-Sarasota-Bradenton, FL Metro Area",M1,"1",G3110,"3365993000","824649346","+27.3642461","-082.3193579"
"344",29.03275,-82.3808,,"36100","36100","Ocala, FL","Ocala, FL Metro Area",M1,"1",G3110,"4113978836","192297049","+29.2028047","-082.0431004"
"346",28.40845,-82.5259,,"45300","45300","Tampa-St. Petersburg-Clearwater, FL","Tampa-St. Petersburg-Clearwater, FL Metro Area",M1,"1",G3110,"6514447222","2113705048","+28.1259071","-082.4652858"
"347",28.26185,-81.3893,"422","36740","36740","Orlando-Kissimmee-Sanford, FL","Orlando-Kissimmee-Sanford, FL Metro Area",M1,"1",G3110,"9037795130","1352006478","+28.4343962","-081.3560839"
"349",27.23281,-80.7277,,"36380","36380","Okeechobee, FL","Okeechobee, FL Micro Area",M2,"2",G3110,"1992107752","317943020","+27.3855924","-080.8873884"
"350",33.46211,-86.6837,"142","13820","13820","Birmingham-Hoover, AL","Birmingham-Hoover, AL Metro Area",M1,"1",G3110,"11625222232","196982372","+33.4025986","-086.7295151"
"351",33.44329,-86.5257,"142","13820","13820","Birmingham-Hoover, AL","Birmingham-Hoover, AL Metro Area",M1,"1",G3110,"11625222232","196982372","+33.4025986","-086.7295151"
"352",33.50159,-86.7699,"142","13820","13820","Birmingham-Hoover, AL","Birmingham-Hoover, AL Metro Area",M1,"1",G3110,"11625222232","196982372","+33.4025986","-086.7295151"
"354",33.0753,-87.8561,,"46220","46220","Tuscaloosa, AL","Tuscaloosa, AL Metro Area",M1,"1",G3110,"9047383849","167284419","+33.0978758","-087.7991533"
"355",33.95425,-87.7087,,,,,,,,,,,,
"356",34.6691,-87.4031,"290","19460","19460","Decatur, AL","Decatur, AL Metro Area",M1,"1",G3110,"3290021083","119059621","+34.4893614","-087.0971469"
"357",34.74807,-86.2701,"497","42460","42460","Scottsboro, AL","Scottsboro, AL Micro Area",M2,"2",G3110,"2791974032","126334709","+34.7641140","-085.9800556"
"358",34.69576,-86.5948,"290","26620","26620","Huntsville, AL","Huntsville, AL Metro Area",M1,"1",G3110,"3526389847","151140377","+34.7832617","-086.7348706"
"359",34.27337,-85.9281,"497","22840","22840","Fort Payne, AL","Fort Payne, AL Micro Area",M2,"2",G3110,"2012676480","4121543","+34.4609290","-085.8039920"
"360",32.08272,-86.0955,"388","33860","33860","Montgomery, AL","Montgomery, AL Metro Area",M1,"1",G3110,"7029590158","187131450","+32.3656313","-086.4045848"
"361",32.3203,-86.2736,"388","33860","33860","Montgomery, AL","Montgomery, AL Metro Area",M1,"1",G3110,"7029590158","187131450","+32.3656313","-086.4045848"
"362",33.52458,-85.6485,,,,,,,,,,,,
"363",31.33895,-85.5543,"222","37120","37120","Ozark, AL","Ozark, AL Micro Area",M2,"2",G3110,"1453244559","4082940","+31.4306536","-085.6094760"
"364",31.36896,-86.9619,,,,,,,,,,,,
"365",31.04263,-87.9474,"380","33660","33660","Mobile, AL","Mobile, AL Metro Area",M1,"1",G3110,"5981878672","1095579401","+30.9715095","-088.2078700"
"366",30.6905,-88.1932,"380","33660","33660","Mobile, AL","Mobile, AL Metro Area",M1,"1",G3110,"5981878672","1095579401","+30.9715095","-088.2078700"
"367",32.31112,-87.3631,"388","42820","42820","Selma, AL","Selma, AL Micro Area",M2,"2",G3110,"2534919607","39124778","+32.3335397","-087.1143556"
"368",32.61409,-85.395,"194","12220","12220","Auburn-Opelika, AL","Auburn-Opelika, AL Metro Area",M1,"1",G3110,"1573514768","21526461","+32.6040644","-085.3530477"
"369",32.13112,-88.2558,,,,,,,,,,,,
"370",36.10414,-86.9857,"400","34980","34980","Nashville-Davidson--Murfreesboro--Franklin, TN","Nashville-Davidson--Murfreesboro--Franklin, TN Metro Area",M1,"1",G3110,"14735541373","197139533","+36.1181822","-086.6441196"
"371",36.00986,-86.6687,"400","34980","34980","Nashville-Davidson--Murfreesboro--Franklin, TN","Nashville-Davidson--Murfreesboro--Franklin, TN Metro Area",M1,"1",G3110,"14735541373","197139533","+36.1181822","-086.6441196"
"372",36.13608,-86.8272,"400","34980","34980","Nashville-Davidson--Murfreesboro--Franklin, TN","Nashville-Davidson--Murfreesboro--Franklin, TN Metro Area",M1,"1",G3110,"14735541373","197139533","+36.1181822","-086.6441196"
"373",35.31768,-85.3476,"174","16860","16860","Chattanooga, TN-GA","Chattanooga, TN-GA Metro Area",M1,"1",G3110,"5410495665","126467844","+35.0493612","-085.3611582"
"374",35.07117,-85.3033,"174","16860","16860","Chattanooga, TN-GA","Chattanooga, TN-GA Metro Area",M1,"1",G3110,"5410495665","126467844","+35.0493612","-085.3611582"
"376",36.35882,-82.296,"304","27740","27740","Johnson City, TN","Johnson City, TN Metro Area",M1,"1",G3110,"2211363898","26131173","+36.2658223","-082.3326926"
"377",36.09747,-83.8222,"315","28940","28940","Knoxville, TN","Knoxville, TN Metro Area",M1,"1",G3110,"8340606719","329160106","+36.0147907","-084.2067014"
"378",36.09552,-83.8431,"315","28940","28940","Knoxville, TN","Knoxville, TN Metro Area",M1,"1",G3110,"8340606719","329160106","+36.0147907","-084.2067014"
"379",35.96562,-83.9661,"315","28940","28940","Knoxville, TN","Knoxville, TN Metro Area",M1,"1",G3110,"8340606719","329160106","+36.0147907","-084.2067014"
"380",35.54831,-89.4213,"297","15140","15140","Brownsville, TN","Brownsville, TN Micro Area",M2,"2",G3110,"1380741545","2472509","+35.5866782","-089.2826913"
"381",35.12218,-89.9776,"368","32820","32820","Memphis, TN-MS-AR","Memphis, TN-MS-AR Metro Area",M1,"1",G3110,"11859725547","311754022","+35.0244194","-089.8719712"
"382",36.29818,-88.6746,"362","32280","32280","Martin, TN","Martin, TN Micro Area",M2,"2",G3110,"1503107848","3707114","+36.3035963","-088.7211938"
"383",35.60546,-88.5049,,,,,,,,,,,,
"384",35.33948,-87.3593,"400","29980","29980","Lawrenceburg, TN","Lawrenceburg, TN Micro Area",M2,"2",G3110,"1598359112","2218403","+35.2204764","-087.3965460"
"385",36.17837,-85.3319,,"18260","18260","Cookeville, TN","Cookeville, TN Micro Area",M2,"2",G3110,"2960923617","35494378","+36.2772512","-085.4685013"
"386",34.57043,-89.7717,"368","32820","32820","Memphis, TN-MS-AR","Memphis, TN-MS-AR Metro Area",M1,"1",G3110,"11859725547","311754022","+35.0244194","-089.8719712"
"387",33.53755,-90.8097,"185","17380","17380","Cleveland, MS","Cleveland, MS Micro Area",M2,"2",G3110,"2270541557","75515374","+33.7991391","-090.8841199"
"388",34.35368,-88.6282,"539","46180","46180","Tupelo, MS","Tupelo, MS Micro Area",M2,"2",G3110,"4909345557","44901929","+34.3400327","-088.6511835"
"389",33.77621,-89.906,,"24980","24980","Grenada, MS","Grenada, MS Micro Area",M2,"2",G3110,"1093291104","70659566","+33.7700310","-089.8027405"
"390",32.5044,-90.0891,"298","27140","27140","Jackson, MS","Jackson, MS Metro Area",M1,"1",G3110,"13999688827","230005773","+32.4282801","-090.2023875"
"391",32.36109,-90.3291,"298","27140","27140","Jackson, MS","Jackson, MS Metro Area",M1,"1",G3110,"13999688827","230005773","+32.4282801","-090.2023875"
"392",32.31721,-90.2051,"298","27140","27140","Jackson, MS","Jackson, MS Metro Area",M1,"1",G3110,"13999688827","230005773","+32.4282801","-090.2023875"
"393",32.43307,-88.8048,,"32940","32940","Meridian, MS","Meridian, MS Micro Area",M2,"2",G3110,"5598088633","36982632","+32.4106743","-088.6619259"
"394",31.23286,-89.2605,"279","25620","25620","Hattiesburg, MS","Hattiesburg, MS Metro Area",M1,"1",G3110,"5241468762","30107898","+31.2737661","-089.3006335"
"395",30.57925,-89.0229,,"25060","25060","Gulfport-Biloxi, MS","Gulfport-Biloxi, MS Metro Area",M1,"1",G3110,"5739122781","2105780374","+30.4801526","-088.9992972"
"396",31.31728,-90.6838,,,,,,,,,,,,
"397",33.53001,-88.8631,,"44260","44260","Starkville, MS","Starkville, MS Micro Area",M2,"2",G3110,"2277594517","14964480","+33.5146172","-089.0775079"
"398",31.32131,-84.6676,,,,,,,,,,,,
"400",38.05911,-85.2912,"350","31140","31140","Louisville/Jefferson County, KY-IN","Louisville/Jefferson County, KY-IN Metro Area",M1,"1",G3110,"8383232249","141343884","+38.3058381","-085.6816455"
"401",37.85584,-86.1643,"350","21060","21060","Elizabethtown-Fort Knox, KY","Elizabethtown-Fort Knox, KY Metro Area",M1,"1",G3110,"3083102433","72201165","+37.7329803","-085.9721707"
"402",38.18686,-85.6589,"350","31140","31140","Louisville/Jefferson County, KY-IN","Louisville/Jefferson County, KY-IN Metro Area",M1,"1",G3110,"8383232249","141343884","+38.3058381","-085.6816455"
"403",38.06128,-84.2359,"336","30460","30460","Lexington-Fayette, KY","Lexington-Fayette, KY Metro Area",M1,"1",G3110,"3807060726","37170433","+38.1028763","-084.4385451"
"404",37.52998,-84.3978,,,,,,,,,,,,
"405",38.0376,-84.4562,"336","30460","30460","Lexington-Fayette, KY","Lexington-Fayette, KY Metro Area",M1,"1",G3110,"3807060726","37170433","+38.1028763","-084.4385451"
"406",38.23292,-84.8829,"336","23180","23180","Frankfort, KY","Frankfort, KY Micro Area",M2,"2",G3110,"1061913380","16270445","+38.1214495","-084.9331670"
"407",36.9305,-84.1243,,"30940","30940","London, KY","London, KY Micro Area",M2,"2",G3110,"4473996615","52507414","+36.9859162","-083.9660657"
"408",36.88609,-83.2839,,,,,,,,,,,,
"409",36.96582,-83.7201,,"30940","30940","London, KY","London, KY Micro Area",M2,"2",G3110,"4473996615","52507414","+36.9859162","-083.9660657"
"410",38.65527,-84.3173,"178","17140","17140","Cincinnati, OH-KY-IN","Cincinnati, OH-KY-IN Metro Area",M1,"1",G3110,"11774658041","219181675","+39.0998213","-084.4804072"
"411",38.37983,-83.0646,"170","26580","26580","Huntington-Ashland, WV-KY-OH","Huntington-Ashland, WV-KY-OH Metro Area",M1,"1",G3110,"6474710090","94526967","+38.4065772","-082.5426456"
"412",37.90357,-82.6804,,,,,,,,,,,,
"413",37.56854,-83.4764,,,,,,,,,,,,
"414",37.84739,-83.173,,,,,,,,,,,,
"415",37.45996,-82.4029,,,,,,,,,,,,
"416",37.54823,-82.7699,,,,,,,,,,,,
"417",37.23068,-83.2404,,,,,,,,,,,,
"418",37.2182,-82.8856,,,,,,,,,,,,
"420",36.90171,-88.5629,"424","32460","32460","Mayfield, KY","Mayfield, KY Micro Area",M2,"2",G3110,"1429041267","13031630","+36.7233435","-088.6498974"
"421",36.88656,-86.0863,"150","14540","14540","Bowling Green, KY","Bowling Green, KY Metro Area",M1,"1",G3110,"4182927267","61820195","+37.0468241","-086.3970408"
"422",36.92941,-87.1521,,,,,,,,,,,,
"423",37.52013,-87.0165,,,,,,,,,,,,
"424",37.47347,-87.7021,,,,,,,,,,,,
"425",37.15172,-84.7012,,"43700","43700","Somerset, KY","Somerset, KY Micro Area",M2,"2",G3110,"1705275134","48546023","+37.1073741","-084.5769534"
"426",36.80925,-84.8188,,,,,,,,,,,,
"427",37.3157,-85.7253,,,,,,,,,,,,
"430",40.20087,-82.9151,"198","18140","18140","Columbus, OH","Columbus, OH Metro Area",M1,"1",G3110,"12423081966","138975190","+39.9685617","-082.8359105"
"431",39.67889,-82.9947,"198","18140","18140","Columbus, OH","Columbus, OH Metro Area",M1,"1",G3110,"12423081966","138975190","+39.9685617","-082.8359105"
"432",39.9888,-82.9823,"198","18140","18140","Columbus, OH","Columbus, OH Metro Area",M1,"1",G3110,"12423081966","138975190","+39.9685617","-082.8359105"
"433",40.55029,-83.3891,"198","32020","32020","Marion, OH","Marion, OH Micro Area",M2,"2",G3110,"1045858048","908577","+40.5880337","-083.1688034"
"434",41.41925,-83.3,"534","23380","23380","Fremont, OH","Fremont, OH Micro Area",M2,"2",G3110,"1057350969","24514231","+41.3553193","-083.1427763"
"435",41.45803,-84.2189,,,,,,,,,,,,
"436",41.65864,-83.5445,"534","45780","45780","Toledo, OH","Toledo, OH Metro Area",M1,"1",G3110,"4188021756","1532383394","+41.5553128","-083.5170883"
"437",39.84773,-81.6627,"198","15740","15740","Cambridge, OH","Cambridge, OH Micro Area",M2,"2",G3110,"1352631181","15666081","+40.0566648","-081.4978750"
"438",40.26163,-81.8896,,"18740","18740","Coshocton, OH","Coshocton, OH Micro Area",M2,"2",G3110,"1460647672","9126264","+40.2967096","-081.9301092"
"439",40.24634,-80.8988,,,,,,,,,,,,
"440",41.54768,-81.2851,"184","17460","17460","Cleveland-Elyria, OH","Cleveland-Elyria, OH Metro Area",M1,"1",G3110,"5178438794","5128507540","+41.7603919","-081.7242168"
"441",41.42014,-81.666,"184","17460","17460","Cleveland-Elyria, OH","Cleveland-Elyria, OH Metro Area",M1,"1",G3110,"5178438794","5128507540","+41.7603919","-081.7242168"
"442",41.12241,-81.598,"184","10420","10420","Akron, OH","Akron, OH Metro Area",M1,"1",G3110,"2331489226","62145698","+41.1466395","-081.3501104"
"443",41.07595,-81.552,"184","10420","10420","Akron, OH","Akron, OH Metro Area",M1,"1",G3110,"2331489226","62145698","+41.1466395","-081.3501104"
"444",41.09564,-80.7767,"566","49660","49660","Youngstown-Warren-Boardman, OH-PA","Youngstown-Warren-Boardman, OH-PA Metro Area",M1,"1",G3110,"4408418280","109334084","+41.2364600","-080.5617836"
"445",41.065,-80.6659,"566","49660","49660","Youngstown-Warren-Boardman, OH-PA","Youngstown-Warren-Boardman, OH-PA Metro Area",M1,"1",G3110,"4408418280","109334084","+41.2364600","-080.5617836"
"446",40.65009,-81.5258,"184","15940","15940","Canton-Massillon, OH","Canton-Massillon, OH Metro Area",M1,"1",G3110,"2512088066","24839111","+40.7110505","-081.2614680"
"447",40.821,-81.362,"184","15940","15940","Canton-Massillon, OH","Canton-Massillon, OH Metro Area",M1,"1",G3110,"2512088066","24839111","+40.7110505","-081.2614680"
"448",41.00783,-82.7546,"184","35940","35940","Norwalk, OH","Norwalk, OH Micro Area",M2,"2",G3110,"1272964850","8616411","+41.1450798","-082.5946410"
"449",40.7465,-82.551,"360","31900","31900","Mansfield, OH","Mansfield, OH Metro Area",M1,"1",G3110,"1282554028","12637716","+40.7741590","-082.5427812"
"450",39.43294,-84.4696,"178","17140","17140","Cincinnati, OH-KY-IN","Cincinnati, OH-KY-IN Metro Area",M1,"1",G3110,"11774658041","219181675","+39.0998213","-084.4804072"
"451",39.15291,-83.8373,,,,,,,,,,,,
"452",39.17923,-84.4763,"178","17140","17140","Cincinnati, OH-KY-IN","Cincinnati, OH-KY-IN Metro Area",M1,"1",G3110,"11774658041","219181675","+39.0998213","-084.4804072"
"453",39.97287,-84.3012,"212","19430","19430","Dayton-Kettering, OH","Dayton-Kettering, OH Metro Area",M1,"1",G3110,"3319471878","22271685","+39.8288538","-084.1418129"
"454",39.74922,-84.1787,"212","19430","19430","Dayton-Kettering, OH","Dayton-Kettering, OH Metro Area",M1,"1",G3110,"3319471878","22271685","+39.8288538","-084.1418129"
"455",39.92882,-83.8139,"212","44220","44220","Springfield, OH","Springfield, OH Metro Area",M1,"1",G3110,"1027907572","14611224","+39.9170315","-083.7836760"
"456",38.97219,-82.8563,,,,,,,,,,,,
"457",39.35264,-81.7912,"425","31930","31930","Marietta, OH","Marietta, OH Micro Area",M2,"2",G3110,"1636805233","20784946","+39.4506764","-081.4906359"
"458",40.82547,-84.2307,"338","30620","30620","Lima, OH","Lima, OH Metro Area",M1,"1",G3110,"1042479889","11259523","+40.7716274","-084.1061032"
"460",40.17016,-86.1351,"294","26900","26900","Indianapolis-Carmel-Anderson, IN","Indianapolis-Carmel-Anderson, IN Metro Area",M1,"1",G3110,"11153902628","88473175","+39.7486700","-086.2123823"
"461",39.61753,-86.1775,"294","26900","26900","Indianapolis-Carmel-Anderson, IN","Indianapolis-Carmel-Anderson, IN Metro Area",M1,"1",G3110,"11153902628","88473175","+39.7486700","-086.2123823"
"462",39.78418,-86.1388,"294","26900","26900","Indianapolis-Carmel-Anderson, IN","Indianapolis-Carmel-Anderson, IN Metro Area",M1,"1",G3110,"11153902628","88473175","+39.7486700","-086.2123823"
"463",41.41087,-87.0534,"176","16980","16980","Chicago-Naperville-Elgin, IL-IN-WI","Chicago-Naperville-Elgin, IL-IN-WI Metro Area",M1,"1",G3110,"18635140910","6173126516","+41.8235214","-087.8282967"
"464",41.55232,-87.336,"176","16980","16980","Chicago-Naperville-Elgin, IL-IN-WI","Chicago-Naperville-Elgin, IL-IN-WI Metro Area",M1,"1",G3110,"18635140910","6173126516","+41.8235214","-087.8282967"
"465",41.43334,-86.0874,"515","38500","38500","Plymouth, IN","Plymouth, IN Micro Area",M2,"2",G3110,"1148969980","15858580","+41.3250032","-086.2690363"
"466",41.66066,-86.2979,"515","43780","43780","South Bend-Mishawaka, IN-MI","South Bend-Mishawaka, IN-MI Metro Area",M1,"1",G3110,"2455307194","56190965","+41.7749808","-086.1230143"
"467",41.17307,-85.2133,"258","23060","23060","Fort Wayne, IN","Fort Wayne, IN Metro Area",M1,"1",G3110,"2571604180","13044267","+41.1131166","-085.2177047"
"468",41.08448,-85.1591,"258","23060","23060","Fort Wayne, IN","Fort Wayne, IN Metro Area",M1,"1",G3110,"2571604180","13044267","+41.1131166","-085.2177047"
"469",40.76275,-86.1385,"316","37940","37940","Peru, IN","Peru, IN Micro Area",M2,"2",G3110,"968246954","9184624","+40.7728833","-086.0442575"
"470",39.15034,-85.0874,"178","17140","17140","Cincinnati, OH-KY-IN","Cincinnati, OH-KY-IN Metro Area",M1,"1",G3110,"11774658041","219181675","+39.0998213","-084.4804072"
"471",38.42173,-86.0402,"350","31140","31140","Louisville/Jefferson County, KY-IN","Louisville/Jefferson County, KY-IN Metro Area",M1,"1",G3110,"8383232249","141343884","+38.3058381","-085.6816455"
"472",39.04313,-85.7431,"294","35860","35860","North Vernon, IN","North Vernon, IN Micro Area",M2,"2",G3110,"975382328","4528272","+38.9962289","-085.6281030"
"473",40.08397,-85.1544,,,,,,,,,,,,
"474",38.99513,-86.6463,"144","14020","14020","Bloomington, IN","Bloomington, IN Metro Area",M1,"1",G3110,"2019718537","50077032","+39.2417362","-086.6717544"
"475",38.47561,-87.0239,,"27540","27540","Jasper, IN","Jasper, IN Micro Area",M2,"2",G3110,"1972450977","38488538","+38.3841559","-087.0359535"
"476",38.12967,-87.5131,,"21780","21780","Evansville, IN-KY","Evansville, IN-KY Metro Area",M1,"1",G3110,"3792650706","125969933","+38.0200703","-087.5861659"
"477",38.01473,-87.5914,,"21780","21780","Evansville, IN-KY","Evansville, IN-KY Metro Area",M1,"1",G3110,"3792650706","125969933","+38.0200703","-087.5861659"
"478",39.44011,-87.2902,,"45460","45460","Terre Haute, IN","Terre Haute, IN Metro Area",M1,"1",G3110,"4946645357","64446662","+39.4784006","-087.3111315"
"479",40.49435,-87.1046,"320","29200","29200","Lafayette-West Lafayette, IN","Lafayette-West Lafayette, IN Metro Area",M1,"1",G3110,"4253381247","23145971","+40.4821533","-087.0171117"
"480",42.83573,-82.8019,"220","19820","19820","Detroit-Warren-Dearborn, MI","Detroit-Warren-Dearborn, MI Metro Area",M1,"1",G3110,"10079403934","890904274","+42.7218478","-083.2008463"
"481",42.20405,-83.6284,"220","11460","11460","Ann Arbor, MI","Ann Arbor, MI Metro Area",M1,"1",G3110,"1828437283","42625748","+42.2522168","-083.8434233"
"482",42.38099,-83.112,"220","19820","19820","Detroit-Warren-Dearborn, MI","Detroit-Warren-Dearborn, MI Metro Area",M1,"1",G3110,"10079403934","890904274","+42.7218478","-083.2008463"
"483",42.66054,-83.3495,"220","19820","19820","Detroit-Warren-Dearborn, MI","Detroit-Warren-Dearborn, MI Metro Area",M1,"1",G3110,"10079403934","890904274","+42.7218478","-083.2008463"
"484",43.29212,-83.2177,"220","19820","19820","Detroit-Warren-Dearborn, MI","Detroit-Warren-Dearborn, MI Metro Area",M1,"1",G3110,"10079403934","890904274","+42.7218478","-083.2008463"
"485",43.02228,-83.6907,"220","22420","22420","Flint, MI","Flint, MI Metro Area",M1,"1",G3110,"1649653741","32768944","+43.0210768","-083.7063718"
"486",44.00392,-84.3629,,,,,,,,,,,,
"487",44.03304,-83.5617,,,,,,,,,,,,
"488",43.0221,-84.6785,,"29620","29620","Lansing-East Lansing, MI","Lansing-East Lansing, MI Metro Area",M1,"1",G3110,"5772159821","69955040","+42.7712334","-084.4960294"
"489",42.73429,-84.5824,,"29620","29620","Lansing-East Lansing, MI","Lansing-East Lansing, MI Metro Area",M1,"1",G3110,"5772159821","69955040","+42.7712334","-084.4960294"
"490",42.2006,-85.5453,"310","28020","28020","Kalamazoo-Portage, MI","Kalamazoo-Portage, MI Metro Area",M1,"1",G3110,"1455523647","47441742","+42.2462657","-085.5328544"
"491",41.87195,-86.3538,"515","35660","35660","Niles, MI","Niles, MI Metro Area",M1,"1",G3110,"1470543783","2625449730","+41.7913818","-086.7425435"
"492",42.04927,-84.353,"220","10300","10300","Adrian, MI","Adrian, MI Micro Area",M2,"2",G3110,"1941504139","30519590","+41.8960225","-084.0743563"
"493",43.33425,-85.5566,"266","24340","24340","Grand Rapids-Kentwood, MI","Grand Rapids-Kentwood, MI Metro Area",M1,"1",G3110,"6964568619","2888123933","+43.0375977","-085.7781669"
"494",43.38552,-86.1398,"266","34740","34740","Muskegon, MI","Muskegon, MI Metro Area",M1,"1",G3110,"1305130138","2476314278","+43.2892579","-086.7518920"
"495",42.95329,-85.659,"266","24340","24340","Grand Rapids-Kentwood, MI","Grand Rapids-Kentwood, MI Metro Area",M1,"1",G3110,"6964568619","2888123933","+43.0375977","-085.7781669"
"496",44.45069,-85.5185,,"15620","15620","Cadillac, MI","Cadillac, MI Micro Area",M2,"2",G3110,"2925942372","50770824","+44.3287385","-085.3264287"
"497",45.52052,-84.4881,,,,,,,,,,,,
"498",46.17847,-86.9269,,,,,,,,,,,,
"499",46.65556,-88.9241,,"26340","26340","Houghton, MI","Houghton, MI Micro Area",M2,"2",G3110,"4012441636","15329028156","+47.6819737","-088.1487965"
"500",41.62112,-93.9398,"218","19780","19780","Des Moines-West Des Moines, IA","Des Moines-West Des Moines, IA Metro Area",M1,"1",G3110,"9356098870","83568330","+41.5770501","-093.7597124"
"501",41.56572,-93.4672,"218","19780","19780","Des Moines-West Des Moines, IA","Des Moines-West Des Moines, IA Metro Area",M1,"1",G3110,"9356098870","83568330","+41.5770501","-093.7597124"
"502",41.62007,-93.599,"218","19780","19780","Des Moines-West Des Moines, IA","Des Moines-West Des Moines, IA Metro Area",M1,"1",G3110,"9356098870","83568330","+41.5770501","-093.7597124"
"503",41.59776,-93.6291,"218","19780","19780","Des Moines-West Des Moines, IA","Des Moines-West Des Moines, IA Metro Area",M1,"1",G3110,"9356098870","83568330","+41.5770501","-093.7597124"
"504",43.16589,-93.3725,,"32380","32380","Mason City, IA","Mason City, IA Micro Area",M2,"2",G3110,"2508204881","22368794","+43.2137325","-093.2743388"
"505",42.76894,-94.4474,,,,,,,,,,,,
"506",42.66113,-92.459,,"47940","47940","Waterloo-Cedar Falls, IA","Waterloo-Cedar Falls, IA Metro Area",M1,"1",G3110,"3893014625","28161549","+42.5367962","-092.4716080"
"507",42.48504,-92.3081,,"47940","47940","Waterloo-Cedar Falls, IA","Waterloo-Cedar Falls, IA Metro Area",M1,"1",G3110,"3893014625","28161549","+42.5367962","-092.4716080"
"508",40.96588,-94.5532,,,,,,,,,,,,
"510",42.59423,-95.8969,,,,,,,,,,,,
"511",42.52167,-96.3703,,"43580","43580","Sioux City, IA-NE-SD","Sioux City, IA-NE-SD Metro Area",M1,"1",G3110,"5371728522","54561384","+42.5129417","-096.4389491"
"512",43.27695,-96.0468,,,,,,,,,,,,
"513",43.26592,-95.1348,"517","44020","44020","Spirit Lake, IA","Spirit Lake, IA Micro Area",M2,"2",G3110,"985542270","60712924","+43.3896107","-095.1960572"
"514",42.10826,-95.0747,,"16140","16140","Carroll, IA","Carroll, IA Micro Area",M2,"2",G3110,"1474835095","2145349","+42.0394920","-094.8676471"
"515",41.44568,-95.5445,"420","36540","36540","Omaha-Council Bluffs, NE-IA","Omaha-Council Bluffs, NE-IA Metro Area",M1,"1",G3110,"11255956206","158628249","+41.2904587","-095.9999701"
"516",40.74304,-95.3568,,,,,,,,,,,,
"520",42.45887,-90.972,,"20220","20220","Dubuque, IA","Dubuque, IA Metro Area",M1,"1",G3110,"1575487988","21138781","+42.4634808","-090.8787708"
"521",43.20731,-91.7342,,,,,,,,,,,,
"522",41.90021,-91.7667,"168","16300","16300","Cedar Rapids, IA","Cedar Rapids, IA Metro Area",M1,"1",G3110,"5202765033","29300009","+42.0863293","-091.6311439"
"523",41.86993,-91.743,"168","16300","16300","Cedar Rapids, IA","Cedar Rapids, IA Metro Area",M1,"1",G3110,"5202765033","29300009","+42.0863293","-091.6311439"
"524",41.96828,-91.6749,"168","16300","16300","Cedar Rapids, IA","Cedar Rapids, IA Metro Area",M1,"1",G3110,"5202765033","29300009","+42.0863293","-091.6311439"
"525",40.94677,-92.4546,,"36900","36900","Ottumwa, IA","Ottumwa, IA Micro Area",M2,"2",G3110,"1118453196","10836289","+41.0312751","-092.4094658"
"526",40.88375,-91.4257,,,,,,,,,,,,
"527",41.64346,-90.8738,"209","19340","19340","Davenport-Moline-Rock Island, IA-IL","Davenport-Moline-Rock Island, IA-IL Metro Area",M1,"1",G3110,"5878838614","114205478","+41.3916799","-090.4600760"
"528",41.56655,-90.6156,"209","19340","19340","Davenport-Moline-Rock Island, IA-IL","Davenport-Moline-Rock Island, IA-IL Metro Area",M1,"1",G3110,"5878838614","114205478","+41.3916799","-090.4600760"
"530",43.51759,-88.2433,"376","33340","33340","Milwaukee-Waukesha, WI","Milwaukee-Waukesha, WI Metro Area",M1,"1",G3110,"3768082371","4835620470","+43.0176601","-087.4815541"
"531",42.75535,-88.3262,"376","48580","48580","Whitewater, WI","Whitewater, WI Micro Area",M2,"2",G3110,"1438529014","54833465","+42.6681095","-088.5417306"
"532",43.06399,-87.9722,"376","33340","33340","Milwaukee-Waukesha, WI","Milwaukee-Waukesha, WI Metro Area",M1,"1",G3110,"3768082371","4835620470","+43.0176601","-087.4815541"
"534",42.74918,-87.8349,"376","39540","39540","Racine, WI","Racine, WI Metro Area",M1,"1",G3110,"861403264","1190237516","+42.7541215","-087.4208775"
"535",42.94302,-89.678,"357","31540","31540","Madison, WI","Madison, WI Metro Area",M1,"1",G3110,"8569686237","200251850","+43.0842941","-089.5971796"
"537",43.07404,-89.3828,"357","31540","31540","Madison, WI","Madison, WI Metro Area",M1,"1",G3110,"8569686237","200251850","+43.0842941","-089.5971796"
"538",42.87691,-90.7433,,"38420","38420","Platteville, WI","Platteville, WI Micro Area",M2,"2",G3110,"2970402180","94521617","+42.8700275","-090.6942288"
"539",43.63449,-89.5474,"357","31540","31540","Madison, WI","Madison, WI Metro Area",M1,"1",G3110,"8569686237","200251850","+43.0842941","-089.5971796"
"540",45.09077,-92.4734,"378","33460","33460","Minneapolis-St. Paul-Bloomington, MN-WI","Minneapolis-St. Paul-Bloomington, MN-WI Metro Area",M1,"1",G3110,"18253278632","1223407456","+45.0966640","-093.2753610"
"541",45.07963,-88.2481,"267","24580","24580","Green Bay, WI","Green Bay, WI Metro Area",M1,"1",G3110,"4843349353","2535183858","+44.4740244","-087.9961303"
"542",44.55725,-87.5737,"267","24580","24580","Green Bay, WI","Green Bay, WI Metro Area",M1,"1",G3110,"4843349353","2535183858","+44.4740244","-087.9961303"
"543",44.52728,-88.0004,"267","24580","24580","Green Bay, WI","Green Bay, WI Metro Area",M1,"1",G3110,"4843349353","2535183858","+44.4740244","-087.9961303"
"544",44.93186,-89.8376,"554","48140","48140","Wausau-Weston, WI","Wausau-Weston, WI Metro Area",M1,"1",G3110,"6277825406","153439046","+45.0539796","-089.7579047"
"545",45.87726,-89.8245,,,,,,,,,,,,
"546",43.93739,-90.8793,,,,,,,,,,,,
"547",44.86143,-91.5237,"232","20740","20740","Eau Claire, WI","Eau Claire, WI Metro Area",M1,"1",G3110,"4263839760","104081841","+44.9386719","-091.2843222"
"548",46.06276,-91.6012,,,,,,,,,,,,
"549",44.18748,-88.9316,,,,,,,,,,,,
"550",45.16506,-92.9748,"378","33460","33460","Minneapolis-St. Paul-Bloomington, MN-WI","Minneapolis-St. Paul-Bloomington, MN-WI Metro Area",M1,"1",G3110,"18253278632","1223407456","+45.0966640","-093.2753610"
"551",44.96267,-93.0795,"378","33460","33460","Minneapolis-St. Paul-Bloomington, MN-WI","Minneapolis-St. Paul-Bloomington, MN-WI Metro Area",M1,"1",G3110,"18253278632","1223407456","+45.0966640","-093.2753610"
"553",44.99331,-94.0618,"378","33460","33460","Minneapolis-St. Paul-Bloomington, MN-WI","Minneapolis-St. Paul-Bloomington, MN-WI Metro Area",M1,"1",G3110,"18253278632","1223407456","+45.0966640","-093.2753610"
"554",45.011,-93.3166,"378","33460","33460","Minneapolis-St. Paul-Bloomington, MN-WI","Minneapolis-St. Paul-Bloomington, MN-WI Metro Area",M1,"1",G3110,"18253278632","1223407456","+45.0966640","-093.2753610"
"556",47.64337,-91.1062,,"20260","20260","Duluth, MN-WI","Duluth, MN-WI Metro Area",M1,"1",G3110,"27252320122","4358695871","+47.3475056","-092.1553326"
"557",47.30096,-92.7761,,"20260","20260","Duluth, MN-WI","Duluth, MN-WI Metro Area",M1,"1",G3110,"27252320122","4358695871","+47.3475056","-092.1553326"
"558",46.97095,-92.0904,,"20260","20260","Duluth, MN-WI","Duluth, MN-WI Metro Area",M1,"1",G3110,"27252320122","4358695871","+47.3475056","-092.1553326"
"559",43.88901,-92.281,"462","40340","40340","Rochester, MN","Rochester, MN Metro Area",M1,"1",G3110,"6415768172","74960121","+43.9496362","-092.3360701"
"560",44.02125,-94.0383,"359","31860","31860","Mankato, MN","Mankato, MN Metro Area",M1,"1",G3110,"3098645400","93600714","+44.1548096","-094.1478013"
"561",43.93157,-95.6573,,,,,,,,,,,,
"562",45.08384,-95.7284,,,,,,,,,,,,
"563",45.82806,-94.6011,,,,,,,,,,,,
"564",46.62511,-94.4947,,"14660","14660","Brainerd, MN","Brainerd, MN Micro Area",M2,"2",G3110,"7821343702","1426297731","+46.7672909","-094.2238624"
"565",46.85247,-96.0837,,,,,,,,,,,,
"566",47.91201,-94.3521,,,,,,,,,,,,
"567",48.42805,-96.2242,,,,,,,,,,,,
"570",43.47493,-97.0645,,"43620","43620","Sioux Falls, SD","Sioux Falls, SD Metro Area",M1,"1",G3110,"6670247197","27910144","+43.4954205","-096.9953387"
"571",43.55046,-96.7518,,"43620","43620","Sioux Falls, SD","Sioux Falls, SD Metro Area",M1,"1",G3110,"6670247197","27910144","+43.4954205","-096.9953387"
"572",45.04691,-97.1691,,"47980","47980","Watertown, SD","Watertown, SD Micro Area",M2,"2",G3110,"3093853487","157191004","+44.8524086","-097.1770994"
"573",43.91306,-98.519,,,,,,,,,,,,
"574",45.36027,-98.9135,,"10100","10100","Aberdeen, SD","Aberdeen, SD Micro Area",M2,"2",G3110,"7353004578","111384297","+45.5194353","-098.7007003"
"575",43.84461,-100.633,,,,,,,,,,,,
"576",45.38693,-101.59,,,,,,,,,,,,
"577",44.26418,-103.152,"452","39660","39660","Rapid City, SD","Rapid City, SD Metro Area",M1,"1",G3110,"16181465649","50668865","+44.3154852","-102.7683833"
"580",46.6583,-97.3872,"244","22020","22020","Fargo, ND-MN","Fargo, ND-MN Metro Area",M1,"1",G3110,"7278210008","26755856","+46.9148591","-096.9601826"
"581",46.86648,-96.8362,"244","22020","22020","Fargo, ND-MN","Fargo, ND-MN Metro Area",M1,"1",G3110,"7278210008","26755856","+46.9148591","-096.9601826"
"582",48.25726,-97.7269,,,,,,,,,,,,
"583",48.3185,-99.3361,,,,,,,,,,,,
"584",46.88255,-99.1176,,"27420","27420","Jamestown, ND","Jamestown, ND Micro Area",M2,"2",G3110,"5754703479","197271625","+46.9722235","-098.9561228"
"585",46.72916,-101.026,,"13900","13900","Bismarck, ND","Bismarck, ND Metro Area",M1,"1",G3110,"11087702747","165098564","+46.8870310","-100.9795920"
"586",46.75457,-102.979,,"19860","19860","Dickinson, ND","Dickinson, ND Micro Area",M2,"2",G3110,"6431980184","26010422","+46.9125835","-102.9884867"
"587",48.34588,-101.673,,"33500","33500","Minot, ND","Minot, ND Micro Area",M2,"2",G3110,"12339055865","249233903","+48.3202424","-101.1980099"
"588",48.16172,-103.528,,"48780","48780","Williston, ND","Williston, ND Micro Area",M2,"2",G3110,"5380949615","181846407","+48.3557649","-103.5013332"
"590",45.9287,-108.523,,"13740","13740","Billings, MT","Billings, MT Metro Area",M1,"1",G3110,"16777746129","99074398","+45.6371402","-108.8323611"
"591",45.68158,-108.419,,"13740","13740","Billings, MT","Billings, MT Metro Area",M1,"1",G3110,"16777746129","99074398","+45.6371402","-108.8323611"
"592",48.21756,-105.649,,,,,,,,,,,,
"593",46.44534,-105.621,,,,,,,,,,,,
"594",47.80425,-111.289,,,,,,,,,,,,
"595",48.39014,-109.119,,,,,,,,,,,,
"596",46.63268,-111.683,,"25740","25740","Helena, MT","Helena, MT Micro Area",M2,"2",G3110,"13248419700","108100449","+46.8113536","-112.2840307"
"597",45.47259,-112.301,,,,,,,,,,,,
"598",46.98264,-114.202,,"33540","33540","Missoula, MT","Missoula, MT Metro Area",M1,"1",G3110,"6715862371","64586516","+47.0272632","-113.8926911"
"599",48.36295,-114.569,,"28060","28060","Kalispell, MT","Kalispell, MT Micro Area",M2,"2",G3110,"13175781006","437178481","+48.3146779","-114.0542951"
"600",42.2934,-88.1549,"176","16980","16980","Chicago-Naperville-Elgin, IL-IN-WI","Chicago-Naperville-Elgin, IL-IN-WI Metro Area",M1,"1",G3110,"18635140910","6173126516","+41.8235214","-087.8282967"
"601",42.01333,-88.4776,"176","16980","16980","Chicago-Naperville-Elgin, IL-IN-WI","Chicago-Naperville-Elgin, IL-IN-WI Metro Area",M1,"1",G3110,"18635140910","6173126516","+41.8235214","-087.8282967"
"602",42.04651,-87.696,"176","16980","16980","Chicago-Naperville-Elgin, IL-IN-WI","Chicago-Naperville-Elgin, IL-IN-WI Metro Area",M1,"1",G3110,"18635140910","6173126516","+41.8235214","-087.8282967"
"603",41.88984,-87.8,"176","16980","16980","Chicago-Naperville-Elgin, IL-IN-WI","Chicago-Naperville-Elgin, IL-IN-WI Metro Area",M1,"1",G3110,"18635140910","6173126516","+41.8235214","-087.8282967"
"604",41.38468,-88.1062,"176","16980","16980","Chicago-Naperville-Elgin, IL-IN-WI","Chicago-Naperville-Elgin, IL-IN-WI Metro Area",M1,"1",G3110,"18635140910","6173126516","+41.8235214","-087.8282967"
"605",41.68168,-88.5319,"176","16980","16980","Chicago-Naperville-Elgin, IL-IN-WI","Chicago-Naperville-Elgin, IL-IN-WI Metro Area",M1,"1",G3110,"18635140910","6173126516","+41.8235214","-087.8282967"
"606",41.83322,-87.6835,"176","16980","16980","Chicago-Naperville-Elgin, IL-IN-WI","Chicago-Naperville-Elgin, IL-IN-WI Metro Area",M1,"1",G3110,"18635140910","6173126516","+41.8235214","-087.8282967"
"607",41.98701,-87.7982,"176","16980","16980","Chicago-Naperville-Elgin, IL-IN-WI","Chicago-Naperville-Elgin, IL-IN-WI Metro Area",M1,"1",G3110,"18635140910","6173126516","+41.8235214","-087.8282967"
"608",41.71578,-87.7067,"176","16980","16980","Chicago-Naperville-Elgin, IL-IN-WI","Chicago-Naperville-Elgin, IL-IN-WI Metro Area",M1,"1",G3110,"18635140910","6173126516","+41.8235214","-087.8282967"
"609",40.79771,-87.9246,,,,,,,,,,,,
"610",42.17198,-89.5908,"466","40300","40300","Rochelle, IL","Rochelle, IL Micro Area",M2,"2",G3110,"1964903717","12378959","+42.0418840","-089.3201764"
"611",42.27915,-89.083,"466","40420","40420","Rockford, IL","Rockford, IL Metro Area",M1,"1",G3110,"2056249053","18962165","+42.3311830","-089.0429139"
"612",41.49025,-90.3111,"209","19340","19340","Davenport-Moline-Rock Island, IA-IL","Davenport-Moline-Rock Island, IA-IL Metro Area",M1,"1",G3110,"5878838614","114205478","+41.3916799","-090.4600760"
"613",41.34511,-89.1803,"176","36837","36837","Ottawa, IL","Ottawa, IL Micro Area",M2,"2",G3110,"5605655623","76366037","+41.3564879","-089.1733848"
"614",40.82825,-90.424,,"23660","23660","Galesburg, IL","Galesburg, IL Micro Area",M2,"2",G3110,"1855427715","8837382","+40.9309446","-090.2137921"
"615",40.68952,-89.7136,,"37900","37900","Peoria, IL","Peoria, IL Metro Area",M1,"1",G3110,"8633755841","173982690","+40.7088872","-089.6974658"
"616",40.70661,-89.6092,,"37900","37900","Peoria, IL","Peoria, IL Metro Area",M1,"1",G3110,"8633755841","173982690","+40.7088872","-089.6974658"
"617",40.52065,-88.889,"145","14010","14010","Bloomington, IL","Bloomington, IL Metro Area",M1,"1",G3110,"3064600918","7801224","+40.4945594","-088.8445391"
"618",40.11085,-88.1533,,"16580","16580","Champaign-Urbana, IL","Champaign-Urbana, IL Metro Area",M1,"1",G3110,"3717412130","6842632","+40.1029885","-088.3185039"
"619",39.65437,-88.1987,,,,,,,,,,,,
"620",39.12412,-89.9821,"476","41180","41180","St. Louis, MO-IL","St. Louis, MO-IL Metro Area",M1,"1",G3110,"20365780913","566584593","+38.7402108","-090.3458253"
"622",38.40827,-89.7211,"476","41180","41180","St. Louis, MO-IL","St. Louis, MO-IL Metro Area",M1,"1",G3110,"20365780913","566584593","+38.7402108","-090.3458253"
"623",39.99669,-91.0202,"448","39500","39500","Quincy, IL-MO","Quincy, IL-MO Micro Area",M2,"2",G3110,"3522857110","56677591","+40.0271652","-091.3898384"
"624",39.03275,-88.1884,,,,,,,,,,,,
"625",39.63574,-89.1976,"522","45380","45380","Taylorville, IL","Taylorville, IL Micro Area",M2,"2",G3110,"1837569692","16227345","+39.5455242","-089.2795927"
"626",39.84839,-90.0097,"522","27300","27300","Jacksonville, IL","Jacksonville, IL Micro Area",M2,"2",G3110,"2123126139","13879802","+39.6939496","-090.2850474"
"627",39.79692,-89.6546,"522","44100","44100","Springfield, IL","Springfield, IL Metro Area",M1,"1",G3110,"3063073942","25286501","+39.8285650","-089.6962052"
"628",38.34268,-88.6334,,,,,,,,,,,,
"629",37.54316,-88.9061,,"16060","16060","Carbondale-Marion, IL","Carbondale-Marion, IL Metro Area",M1,"1",G3110,"3490057672","123591631","+37.6897419","-089.1051489"
"630",38.36784,-90.8157,"476","41180","41180","St. Louis, MO-IL","St. Louis, MO-IL Metro Area",M1,"1",G3110,"20365780913","566584593","+38.7402108","-090.3458253"
"631",38.63213,-90.3269,"476","41180","41180","St. Louis, MO-IL","St. Louis, MO-IL Metro Area",M1,"1",G3110,"20365780913","566584593","+38.7402108","-090.3458253"
"633",39.01468,-91.1122,"476","41180","41180","St. Louis, MO-IL","St. Louis, MO-IL Metro Area",M1,"1",G3110,"20365780913","566584593","+38.7402108","-090.3458253"
"634",39.93807,-91.7797,"448","25300","25300","Hannibal, MO","Hannibal, MO Micro Area",M2,"2",G3110,"2348365475","55495729","+39.6641152","-091.5791788"
"635",40.20699,-92.6223,,"28860","28860","Kirksville, MO","Kirksville, MO Micro Area",M2,"2",G3110,"2265278462","7684518","+40.2844889","-092.5651239"
"636",37.64304,-90.5886,"476","22100","22100","Farmington, MO","Farmington, MO Micro Area",M2,"2",G3110,"1170381746","7216295","+37.8107068","-090.4738684"
"637",37.36391,-89.8034,"164","16020","16020","Cape Girardeau, MO-IL","Cape Girardeau, MO-IL Metro Area",M1,"1",G3110,"3708446707","73228104","+37.3259361","-089.7626388"
"638",36.55851,-89.7289,,,,,,,,,,,,
"639",36.85134,-90.6065,,"38740","38740","Poplar Bluff, MO","Poplar Bluff, MO Micro Area",M2,"2",G3110,"3429666215","16655720","+36.6876500","-090.6228496"
"640",39.07491,-94.111,"312","28140","28140","Kansas City, MO-KS","Kansas City, MO-KS Metro Area",M1,"1",G3110,"18794229140","301341091","+38.9318494","-094.4438241"
"641",39.13909,-94.5716,"312","28140","28140","Kansas City, MO-KS","Kansas City, MO-KS Metro Area",M1,"1",G3110,"18794229140","301341091","+38.9318494","-094.4438241"
"644",40.14043,-94.7046,,"32340","32340","Maryville, MO","Maryville, MO Micro Area",M2,"2",G3110,"2271326614","2361588","+40.3611359","-094.8831457"
"645",39.73987,-94.841,"312","41140","41140","St. Joseph, MO-KS","St. Joseph, MO-KS Metro Area",M1,"1",G3110,"4288274613","51620344","+39.8348430","-094.7837537"
"646",39.88696,-93.5656,,,,,,,,,,,,
"647",38.0559,-94.1439,,,,,,,,,,,,
"648",36.92922,-94.3469,"309","27900","27900","Joplin, MO","Joplin, MO Metro Area",M1,"1",G3110,"3271829835","11878891","+37.0555457","-094.3397364"
"650",38.44721,-92.2332,,"27620","27620","Jefferson City, MO","Jefferson City, MO Metro Area",M1,"1",G3110,"5821574206","79984964","+38.6368854","-092.0888760"
"651",38.52338,-92.1983,,"27620","27620","Jefferson City, MO","Jefferson City, MO Metro Area",M1,"1",G3110,"5821574206","79984964","+38.6368854","-092.0888760"
"652",39.21434,-92.3815,"190","17860","17860","Columbia, MO","Columbia, MO Metro Area",M1,"1",G3110,"4439509654","45549690","+38.9864864","-092.5851888"
"653",38.70694,-93.254,,"42740","42740","Sedalia, MO","Sedalia, MO Micro Area",M2,"2",G3110,"1766953612","10501027","+38.7273667","-093.2852073"
"654",37.62396,-91.7423,,,,,,,,,,,,
"655",37.62602,-91.8412,,"40620","40620","Rolla, MO","Rolla, MO Micro Area",M2,"2",G3110,"1739918996","6567069","+37.8663263","-091.7903492"
"656",37.07066,-92.9455,,"44180","44180","Springfield, MO","Springfield, MO Metro Area",M1,"1",G3110,"7788134659","35474129","+37.3608699","-093.1802617"
"657",37.10935,-92.9308,,"44180","44180","Springfield, MO","Springfield, MO Metro Area",M1,"1",G3110,"7788134659","35474129","+37.3608699","-093.1802617"
"658",37.22445,-93.3025,,"44180","44180","Springfield, MO","Springfield, MO Metro Area",M1,"1",G3110,"7788134659","35474129","+37.3608699","-093.1802617"
"660",38.83412,-95.1242,"312","29940","29940","Lawrence, KS","Lawrence, KS Metro Area",M1,"1",G3110,"1180425074","48878066","+38.8964168","-095.2909475"
"661",39.12208,-94.7521,"312","28140","28140","Kansas City, MO-KS","Kansas City, MO-KS Metro Area",M1,"1",G3110,"18794229140","301341091","+38.9318494","-094.4438241"
"662",38.95778,-94.7322,"312","28140","28140","Kansas City, MO-KS","Kansas City, MO-KS Metro Area",M1,"1",G3110,"18794229140","301341091","+38.9318494","-094.4438241"
"664",39.36659,-96.1085,,"31740","31740","Manhattan, KS","Manhattan, KS Metro Area",M1,"1",G3110,"4752896549","137754617","+39.2684241","-096.5622422"
"665",39.34823,-96.1571,,"31740","31740","Manhattan, KS","Manhattan, KS Metro Area",M1,"1",G3110,"4752896549","137754617","+39.2684241","-096.5622422"
"666",39.06701,-95.7591,,"45820","45820","Topeka, KS","Topeka, KS Metro Area",M1,"1",G3110,"8372538366","148406221","+39.0413888","-095.8026393"
"667",37.6354,-95.2197,,,,,,,,,,,,
"668",38.36215,-96.3841,,"21380","21380","Emporia, KS","Emporia, KS Micro Area",M2,"2",G3110,"4197177726","32632186","+38.3821338","-096.3593009"
"669",39.7703,-97.83,,,,,,,,,,,,
"670",37.48805,-97.695,"556","48620","48620","Wichita, KS","Wichita, KS Metro Area",M1,"1",G3110,"10743282133","86299802","+37.6378960","-097.2462875"
"671",37.49494,-97.892,,,,,,,,,,,,
"672",37.6988,-97.3288,"556","48620","48620","Wichita, KS","Wichita, KS Metro Area",M1,"1",G3110,"10743282133","86299802","+37.6378960","-097.2462875"
"673",37.2354,-95.7904,,"17700","17700","Coffeyville, KS","Coffeyville, KS Micro Area",M2,"2",G3110,"1666900087","20430012","+37.1895369","-095.7424028"
"674",38.97551,-97.7916,,"41460","41460","Salina, KS","Salina, KS Micro Area",M2,"2",G3110,"3732101292","4340890","+38.9645697","-097.6633868"
"675",38.23023,-98.9469,,,,,,,,,,,,
"676",39.32459,-99.4496,,,,,,,,,,,,
"677",39.33787,-101.132,,,,,,,,,,,,
"678",37.88528,-100.802,,"23780","23780","Garden City, KS","Garden City, KS Micro Area",M2,"2",G3110,"5626854510","2849972","+38.0254528","-100.9706954"
"679",37.18124,-101.431,,,,,,,,,,,,
"680",41.54562,-96.4538,"420","23340","23340","Fremont, NE","Fremont, NE Micro Area",M2,"2",G3110,"1370269383","36091878","+41.5770082","-096.6458526"
"681",41.24658,-96.0442,"420","36540","36540","Omaha-Council Bluffs, NE-IA","Omaha-Council Bluffs, NE-IA Metro Area",M1,"1",G3110,"11255956206","158628249","+41.2904587","-095.9999701"
"683",40.41501,-96.8523,"339","13100","13100","Beatrice, NE","Beatrice, NE Micro Area",M2,"2",G3110,"2205275202","22010739","+40.2552337","-096.6834528"
"684",40.55191,-96.656,"339","30700","30700","Lincoln, NE","Lincoln, NE Metro Area",M1,"1",G3110,"3649266235","34392021","+40.8174581","-096.8687434"
"685",40.82786,-96.679,"339","30700","30700","Lincoln, NE","Lincoln, NE Metro Area",M1,"1",G3110,"3649266235","34392021","+40.8174581","-096.8687434"
"686",41.53873,-97.665,,"18100","18100","Columbus, NE","Columbus, NE Micro Area",M2,"2",G3110,"1745910556","27167484","+41.5768655","-097.5134673"
"687",42.43008,-98.1902,,,,,,,,,,,,
"688",41.31301,-99.0955,,,,,,,,,,,,
"689",40.33885,-98.9057,,,,,,,,,,,,
"690",40.36488,-100.995,,,,,,,,,,,,
"691",41.3836,-101.543,,,,,,,,,,,,
"692",42.57416,-100.889,,,,,,,,,,,,
"693",42.25213,-102.96,,,,,,,,,,,,
"700",29.75433,-89.9772,"406","35380","35380","New Orleans-Metairie, LA","New Orleans-Metairie, LA Metro Area",M1,"1",G3110,"8295850369","12098960735","+29.8055320","-089.7013821"
"701",30.04776,-89.9065,"406","35380","35380","New Orleans-Metairie, LA","New Orleans-Metairie, LA Metro Area",M1,"1",G3110,"8295850369","12098960735","+29.8055320","-089.7013821"
"703",29.57123,-90.7967,,"26380","26380","Houma-Thibodaux, LA","Houma-Thibodaux, LA Metro Area",M1,"1",G3110,"5952278228","3244682296","+29.3341299","-090.8436739"
"704",30.56089,-90.225,"406","35380","35380","New Orleans-Metairie, LA","New Orleans-Metairie, LA Metro Area",M1,"1",G3110,"8295850369","12098960735","+29.8055320","-089.7013821"
"705",30.16706,-92.1555,"318","29180","29180","Lafayette, LA","Lafayette, LA Metro Area",M1,"1",G3110,"8827864784","2349879167","+29.9577733","-092.0493498"
"706",30.32714,-93.2187,"324","29340","29340","Lake Charles, LA","Lake Charles, LA Metro Area",M1,"1",G3110,"6083940376","1766166035","+29.9787547","-093.2532434"
"707",30.56069,-91.2205,,"12940","12940","Baton Rouge, LA","Baton Rouge, LA Metro Area",M1,"1",G3110,"11306909736","523320311","+30.5187808","-091.1255901"
"708",30.44369,-91.1068,,"12940","12940","Baton Rouge, LA","Baton Rouge, LA Metro Area",M1,"1",G3110,"11306909736","523320311","+30.5187808","-091.1255901"
"710",32.45044,-93.4058,"508","33380","33380","Minden, LA","Minden, LA Micro Area",M2,"2",G3110,"1536337099","56090611","+32.7321522","-093.3398245"
"711",32.46323,-93.7601,"508","43340","43340","Shreveport-Bossier City, LA","Shreveport-Bossier City, LA Metro Area",M1,"1",G3110,"6723111106","266266753","+32.4376822","-093.7448836"
"712",32.57049,-91.9542,"384","33740","33740","Monroe, LA","Monroe, LA Metro Area",M1,"1",G3110,"5911054667","157806001","+32.7342550","-092.0995498"
"713",31.44974,-91.8679,,,,,,,,,,,,
"714",31.55884,-92.8662,,"35060","35060","Natchitoches, LA","Natchitoches, LA Micro Area",M2,"2",G3110,"3243376637","120998331","+31.7325509","-093.0826114"
"716",33.6082,-91.752,,,,,,,,,,,,
"717",33.48694,-92.7834,,"15780","15780","Camden, AR","Camden, AR Micro Area",M2,"2",G3110,"3525874156","27976582","+33.5675198","-092.7082209"
"718",33.65482,-93.8309,,"26260","26260","Hope, AR","Hope, AR Micro Area",M2,"2",G3110,"3484477157","42610511","+33.7008395","-093.4995489"
"719",34.40676,-93.6167,,,,,,,,,,,,
"720",34.88778,-91.9093,"340","30780","30780","Little Rock-North Little Rock-Conway, AR","Little Rock-North Little Rock-Conway, AR Metro Area",M1,"1",G3110,"10579350490","294840550","+34.7557726","-092.4005889"
"721",34.88846,-92.0992,"340","30780","30780","Little Rock-North Little Rock-Conway, AR","Little Rock-North Little Rock-Conway, AR Metro Area",M1,"1",G3110,"10579350490","294840550","+34.7557726","-092.4005889"
"722",34.7049,-92.37,"340","30780","30780","Little Rock-North Little Rock-Conway, AR","Little Rock-North Little Rock-Conway, AR Metro Area",M1,"1",G3110,"10579350490","294840550","+34.7557726","-092.4005889"
"723",35.06441,-90.5819,"368","22620","22620","Forrest City, AR","Forrest City, AR Micro Area",M2,"2",G3110,"1644019105","20027489","+35.0228383","-090.7515053"
"724",36.03822,-90.749,"308","37500","37500","Paragould, AR","Paragould, AR Micro Area",M2,"2",G3110,"1496205800","4789610","+36.1206072","-090.5663459"
"725",36.01122,-91.8047,,,,,,,,,,,,
"726",36.13457,-92.9511,,"25460","25460","Harrison, AR","Harrison, AR Micro Area",M2,"2",G3110,"3654213078","37022376","+36.0878092","-093.1620533"
"727",36.12234,-94.0672,,"22220","22220","Fayetteville-Springdale-Rogers, AR","Fayetteville-Springdale-Rogers, AR Metro Area",M1,"1",G3110,"6796483980","128440071","+36.1163935","-094.0795449"
"728",35.27711,-93.3362,,,,,,,,,,,,
"729",35.28702,-94.0795,,"22900","22900","Fort Smith, AR-OK","Fort Smith, AR-OK Metro Area",M1,"1",G3110,"6234769288","198777922","+35.4631192","-094.2997413"
"730",35.28938,-97.8228,"416","36420","36420","Oklahoma City, OK","Oklahoma City, OK Metro Area",M1,"1",G3110,"14275227077","181217176","+35.4309676","-097.5069659"
"731",35.44407,-97.4998,"416","36420","36420","Oklahoma City, OK","Oklahoma City, OK Metro Area",M1,"1",G3110,"14275227077","181217176","+35.4309676","-097.5069659"
"734",34.19019,-97.1229,,"11620","11620","Ardmore, OK","Ardmore, OK Micro Area",M2,"2",G3110,"3460517249","77497872","+34.1258229","-097.2639184"
"735",34.52021,-98.7869,,"30020","30020","Lawton, OK","Lawton, OK Metro Area",M1,"1",G3110,"4408166829","61535457","+34.5291104","-098.4309172"
"736",35.51289,-99.3227,,"48220","48220","Weatherford, OK","Weatherford, OK Micro Area",M2,"2",G3110,"2560925953","34326632","+35.6456012","-098.9973857"
"737",36.4102,-98.1832,,,,,,,,,,,,
"738",36.50661,-99.5332,,"49260","49260","Woodward, OK","Woodward, OK Micro Area",M2,"2",G3110,"6408310999","10645808","+36.3312927","-099.5006858"
"739",36.74894,-101.667,,"25100","25100","Guymon, OK","Guymon, OK Micro Area",M2,"2",G3110,"5286873577","19218939","+36.7463169","-101.4838549"
"740",36.33684,-96.1986,"538","46140","46140","Tulsa, OK","Tulsa, OK Metro Area",M1,"1",G3110,"16238317043","493035449","+36.2544287","-096.1773294"
"741",36.1396,-95.9479,"538","46140","46140","Tulsa, OK","Tulsa, OK Metro Area",M1,"1",G3110,"16238317043","493035449","+36.2544287","-096.1773294"
"743",36.54808,-95.0208,,,,,,,,,,,,
"744",35.63068,-95.4483,"538","34780","34780","Muskogee, OK","Muskogee, OK Micro Area",M2,"2",G3110,"2099505908","76119907","+35.6175506","-095.3839106"
"745",34.64476,-95.6613,,"32540","32540","McAlester, OK","McAlester, OK Micro Area",M2,"2",G3110,"3381281071","187427366","+34.9255401","-095.7481302"
"746",36.7093,-97.0345,,"38620","38620","Ponca City, OK","Ponca City, OK Micro Area",M2,"2",G3110,"2381740395","65583671","+36.8148851","-097.1438616"
"747",34.03616,-95.3942,,,,,,,,,,,,
"748",35.16795,-96.6627,,,,,,,,,,,,
"749",35.17612,-94.6994,,,,,,,,,,,,
"750",33.22933,-96.7245,"206","19100","19100","Dallas-Fort Worth-Arlington, TX","Dallas-Fort Worth-Arlington, TX Metro Area",M1,"1",G3110,"22465626198","862946133","+32.8491708","-096.9704894"
"751",32.46883,-96.3171,"206","19100","19100","Dallas-Fort Worth-Arlington, TX","Dallas-Fort Worth-Arlington, TX Metro Area",M1,"1",G3110,"22465626198","862946133","+32.8491708","-096.9704894"
"752",32.79463,-96.8064,"206","19100","19100","Dallas-Fort Worth-Arlington, TX","Dallas-Fort Worth-Arlington, TX Metro Area",M1,"1",G3110,"22465626198","862946133","+32.8491708","-096.9704894"
"754",33.36439,-95.6775,,,,,,,,,,,,
"755",33.30317,-94.4493,,"45500","45500","Texarkana, TX-AR","Texarkana, TX-AR Metro Area",M1,"1",G3110,"5291293469","213420507","+33.4783701","-094.2071694"
"756",32.48944,-94.578,,"30980","30980","Longview, TX","Longview, TX Metro Area",M1,"1",G3110,"6942346400","108953249","+32.4316457","-094.6848326"
"757",32.24436,-95.3661,"540","46340","46340","Tyler, TX","Tyler, TX Metro Area",M1,"1",G3110,"2386604273","73163661","+32.3770156","-095.2700409"
"758",31.44859,-95.6692,,,,,,,,,,,,
"759",31.27405,-94.2895,,,,,,,,,,,,
"760",32.60106,-97.5372,"206","19100","19100","Dallas-Fort Worth-Arlington, TX","Dallas-Fort Worth-Arlington, TX Metro Area",M1,"1",G3110,"22465626198","862946133","+32.8491708","-096.9704894"
"761",32.7685,-97.3803,"206","19100","19100","Dallas-Fort Worth-Arlington, TX","Dallas-Fort Worth-Arlington, TX Metro Area",M1,"1",G3110,"22465626198","862946133","+32.8491708","-096.9704894"
"762",33.52083,-97.4294,"206","23620","23620","Gainesville, TX","Gainesville, TX Micro Area",M2,"2",G3110,"2265770199","61339004","+33.6391964","-097.2103433"
"763",33.72611,-98.9542,,,,,,,,,,,,
"764",32.61364,-98.633,,,,,,,,,,,,
"765",31.1107,-97.6102,,"28660","28660","Killeen-Temple, TX","Killeen-Temple, TX Metro Area",M1,"1",G3110,"7294517178","109031084","+31.2027301","-097.7896384"
"766",31.71629,-97.0559,,"47380","47380","Waco, TX","Waco, TX Metro Area",M1,"1",G3110,"4668748609","81506799","+31.4272264","-097.0934727"
"767",31.56777,-97.1448,,"47380","47380","Waco, TX","Waco, TX Metro Area",M1,"1",G3110,"4668748609","81506799","+31.4272264","-097.0934727"
"768",31.19753,-99.3632,,,,,,,,,,,,
"769",31.11542,-100.936,,"41660","41660","San Angelo, TX","San Angelo, TX Metro Area",M1,"1",G3110,"9057174172","48421083","+31.4798393","-100.7745902"
"770",29.79486,-95.406,"288","26420","26420","Houston-The Woodlands-Sugar Land, TX","Houston-The Woodlands-Sugar Land, TX Metro Area",M1,"1",G3110,"21413036357","3046384726","+29.7495926","-095.3536422"
"772",29.72245,-95.3437,"288","26420","26420","Houston-The Woodlands-Sugar Land, TX","Houston-The Woodlands-Sugar Land, TX Metro Area",M1,"1",G3110,"21413036357","3046384726","+29.7495926","-095.3536422"
"773",30.48561,-95.2564,,,,,,,,,,,,
"774",29.39706,-96.0263,"288","20900","20900","El Campo, TX","El Campo, TX Micro Area",M2,"2",G3110,"2813117310","21287759","+29.2784805","-096.2296745"
"775",29.65711,-94.9873,"288","26420","26420","Houston-The Woodlands-Sugar Land, TX","Houston-The Woodlands-Sugar Land, TX Metro Area",M1,"1",G3110,"21413036357","3046384726","+29.7495926","-095.3536422"
"776",30.18392,-94.1677,,"13140","13140","Beaumont-Port Arthur, TX","Beaumont-Port Arthur, TX Metro Area",M1,"1",G3110,"5440906517","748475098","+30.0759278","-094.2027049"
"777",29.99628,-94.2292,,"13140","13140","Beaumont-Port Arthur, TX","Beaumont-Port Arthur, TX Metro Area",M1,"1",G3110,"5440906517","748475098","+30.0759278","-094.2027049"
"778",30.68002,-96.3108,,"17780","17780","College Station-Bryan, TX","College Station-Bryan, TX Metro Area",M1,"1",G3110,"5439699131","85614753","+30.7543917","-096.4885368"
"779",28.90174,-96.9788,"544","47020","47020","Victoria, TX","Victoria, TX Metro Area",M1,"1",G3110,"4491343521","36475959","+28.7314546","-097.1969934"
"780",28.5467,-98.9901,,,,,,,,,,,,
"781",29.09497,-97.9262,"484","41700","41700","San Antonio-New Braunfels, TX","San Antonio-New Braunfels, TX Metro Area",M1,"1",G3110,"18941015258","149423497","+29.4330599","-098.6069734"
"782",29.46499,-98.5241,"484","41700","41700","San Antonio-New Braunfels, TX","San Antonio-New Braunfels, TX Metro Area",M1,"1",G3110,"18941015258","149423497","+29.4330599","-098.6069734"
"783",27.49677,-98.0506,"204","28780","28780","Kingsville, TX","Kingsville, TX Micro Area",M2,"2",G3110,"6059948097","1803251161","+27.1139432","-097.5685077"
"784",27.70182,-97.432,"204","18580","18580","Corpus Christi, TX","Corpus Christi, TX Metro Area",M1,"1",G3110,"3967167792","884886248","+27.8335972","-097.5089575"
"785",26.39519,-98.1273,"365","32580","32580","McAllen-Edinburg-Mission, TX","McAllen-Edinburg-Mission, TX Metro Area",M1,"1",G3110,"4068395785","31102629","+26.3963839","-098.1809900"
"786",30.27247,-98.1069,,"12420","12420","Austin-Round Rock-Georgetown, TX","Austin-Round Rock-Georgetown, TX Metro Area",M1,"1",G3110,"10935038512","150326847","+30.2395128","-097.6912697"
"787",30.28708,-97.806,,"12420","12420","Austin-Round Rock-Georgetown, TX","Austin-Round Rock-Georgetown, TX Metro Area",M1,"1",G3110,"10935038512","150326847","+30.2395128","-097.6912697"
"788",29.53311,-100.515,,,,,,,,,,,,
"789",29.92311,-96.8805,,,,,,,,,,,,
"790",35.49322,-101.634,"108","11100","11100","Amarillo, TX","Amarillo, TX Metro Area",M1,"1",G3110,"13338931286","86991891","+35.2478969","-101.9086384"
"791",35.29499,-101.892,"108","11100","11100","Amarillo, TX","Amarillo, TX Metro Area",M1,"1",G3110,"13338931286","86991891","+35.2478969","-101.9086384"
"792",34.23078,-100.57,,,,,,,,,,,,
"793",33.38437,-102.198,,,,,,,,,,,,
"794",33.58516,-101.874,"352","31180","31180","Lubbock, TX","Lubbock, TX Metro Area",M1,"1",G3110,"6961020747","21259390","+33.4703271","-101.6488249"
"795",32.67885,-100.34,,,,,,,,,,,,
"796",32.44055,-99.734,,"10180","10180","Abilene, TX","Abilene, TX Metro Area",M1,"1",G3110,"7105578382","36846346","+32.4520222","-099.7187428"
"797",31.49892,-102.706,,,,,,,,,,,,
"798",30.61652,-104.282,,,,,,,,,,,,
"799",31.82288,-106.219,"238","21340","21340","El Paso, TX","El Paso, TX Metro Area",M1,"1",G3110,"14461902958","7482945","+31.5273940","-105.5213326"
"800",39.80957,-104.894,"216","19740","19740","Denver-Aurora-Lakewood, CO","Denver-Aurora-Lakewood, CO Metro Area",M1,"1",G3110,"21613407404","149583396","+39.4347890","-104.9010728"
"801",39.50156,-104.472,"216","19740","19740","Denver-Aurora-Lakewood, CO","Denver-Aurora-Lakewood, CO Metro Area",M1,"1",G3110,"21613407404","149583396","+39.4347890","-104.9010728"
"802",39.76806,-104.952,"216","19740","19740","Denver-Aurora-Lakewood, CO","Denver-Aurora-Lakewood, CO Metro Area",M1,"1",G3110,"21613407404","149583396","+39.4347890","-104.9010728"
"803",40.02168,-105.302,"216","14500","14500","Boulder, CO","Boulder, CO Metro Area",M1,"1",G3110,"1881309466","36493405","+40.0949699","-105.3976911"
"804",40.03032,-106.186,,,,,,,,,,,,
"805",40.58392,-105.405,,"22660","22660","Fort Collins, CO","Fort Collins, CO Metro Area",M1,"1",G3110,"6723025059","99007869","+40.6580933","-105.4867638"
"806",40.41052,-104.483,"216","24540","24540","Greeley, CO","Greeley, CO Metro Area",M1,"1",G3110,"10320918528","82403821","+40.5559610","-104.3836660"
"807",40.37727,-103.066,,,,,,,,,,,,
"808",39.06739,-103.536,,,,,,,,,,,,
"809",38.779,-104.671,,"17820","17820","Colorado Springs, CO","Colorado Springs, CO Metro Area",M1,"1",G3110,"6951246320","12034174","+38.8455072","-104.6387277"
"810",37.77672,-103.586,,,,,,,,,,,,
"811",37.59276,-106.378,,,,,,,,,,,,
"812",38.43701,-106.4,,,,,,,,,,,,
"813",37.49573,-108.444,,,,,,,,,,,,
"814",38.43239,-107.994,,"33940","33940","Montrose, CO","Montrose, CO Micro Area",M2,"2",G3110,"7206742921","6522803","+38.3425479","-108.1622366"
"815",38.91649,-108.706,,"24300","24300","Grand Junction, CO","Grand Junction, CO Metro Area",M1,"1",G3110,"8621849401","31490395","+39.0195240","-108.4605707"
"816",39.99413,-107.858,,,,,,,,,,,,
"820",41.50213,-105.363,,"29660","29660","Laramie, WY","Laramie, WY Micro Area",M2,"2",G3110,"11070455501","89161376","+41.6655141","-105.7218826"
"821",44.57472,-110.519,,"27220","27220","Jackson, WY-ID","Jackson, WY-ID Micro Area",M2,"2",G3110,"11514924270","573733352","+44.0486620","-110.4260870"
"822",42.47801,-104.617,,,,,,,,,,,,
"823",41.85672,-107.385,,,,,,,,,,,,
"824",44.25698,-108.556,,,,,,,,,,,,
"825",43.12617,-109.003,,"40180","40180","Riverton, WY","Riverton, WY Micro Area",M2,"2",G3110,"23785388828","212768588","+43.0548310","-108.6089349"
"826",43.15003,-106.471,,"16220","16220","Casper, WY","Casper, WY Metro Area",M1,"1",G3110,"13831928329","90969261","+42.9776447","-106.7682192"
"827",44.23159,-105.044,,"23940","23940","Gillette, WY","Gillette, WY Micro Area",M2,"2",G3110,"26041164939","44421978","+44.2321004","-105.0343417"
"828",44.60251,-106.757,,"43260","43260","Sheridan, WY","Sheridan, WY Micro Area",M2,"2",G3110,"6535475106","7986330","+44.7813692","-106.8812114"
"829",41.89528,-109.606,,"40540","40540","Rock Springs, WY","Rock Springs, WY Micro Area",M2,"2",G3110,"27005754251","166230252","+41.6603282","-108.8756774"
"830",43.71829,-110.541,,"27220","27220","Jackson, WY-ID","Jackson, WY-ID Micro Area",M2,"2",G3110,"11514924270","573733352","+44.0486620","-110.4260870"
"831",42.37417,-110.56,,,,,,,,,,,,
"832",43.33451,-112.931,"292","13940","13940","Blackfoot, ID","Blackfoot, ID Micro Area",M2,"2",G3110,"5422897822","68476532","+43.2163568","-112.3992058"
"833",42.84686,-114.149,,,,,,,,,,,,
"834",44.31446,-112.587,,,,,,,,,,,,
"835",46.06186,-115.634,,,,,,,,,,,,
"836",43.60346,-116.046,"147","14260","14260","Boise City, ID","Boise City, ID Metro Area",M1,"1",G3110,"30475329803","171010040","+43.0066485","-116.1419089"
"837",43.66645,-115.698,"147","14260","14260","Boise City, ID","Boise City, ID Metro Area",M1,"1",G3110,"30475329803","171010040","+43.0066485","-116.1419089"
"838",47.73416,-116.406,"518","17660","17660","Coeur d'Alene, ID","Coeur d'Alene, ID Metro Area",M1,"1",G3110,"3205833848","184447574","+47.6759658","-116.6959222"
"840",40.42828,-111.538,"482","25720","25720","Heber, UT","Heber, UT Micro Area",M2,"2",G3110,"7893231457","105745495","+40.6913977","-111.0527658"
"841",40.70449,-111.808,"482","41620","41620","Salt Lake City, UT","Salt Lake City, UT Metro Area",M1,"1",G3110,"19901500435","1055976759","+40.5728869","-112.9532527"
"843",41.54003,-112.833,"482","36260","36260","Ogden-Clearfield, UT","Ogden-Clearfield, UT Metro Area",M1,"1",G3110,"18725867005","3639152872","+41.2760610","-113.1262260"
"844",41.22956,-112.127,"482","36260","36260","Ogden-Clearfield, UT","Ogden-Clearfield, UT Metro Area",M1,"1",G3110,"18725867005","3639152872","+41.2760610","-113.1262260"
"845",38.4375,-110.052,,,,,,,,,,,,
"846",39.33504,-112.102,"482","39340","39340","Provo-Orem, UT","Provo-Orem, UT Metro Area",M1,"1",G3110,"13974918876","399542461","+39.8720670","-112.3590592"
"847",38.04618,-112.413,,,,,,,,,,,,
"850",33.65028,-112.094,"429","38060","38060","Phoenix-Mesa-Chandler, AZ","Phoenix-Mesa-Chandler, AZ Metro Area",M1,"1",G3110,"37727619480","85692120","+33.1857653","-112.0678624"
"851",32.95142,-111.479,"429","38060","38060","Phoenix-Mesa-Chandler, AZ","Phoenix-Mesa-Chandler, AZ Metro Area",M1,"1",G3110,"37727619480","85692120","+33.1857653","-112.0678624"
"852",33.59896,-111.637,"429","38060","38060","Phoenix-Mesa-Chandler, AZ","Phoenix-Mesa-Chandler, AZ Metro Area",M1,"1",G3110,"37727619480","85692120","+33.1857653","-112.0678624"
"853",33.3637,-113.429,,"49740","49740","Yuma, AZ","Yuma, AZ Metro Area",M1,"1",G3110,"14280777606","13248642","+32.7739424","-113.9109050"
"855",33.43584,-110.177,,"40940","40940","Safford, AZ","Safford, AZ Micro Area",M2,"2",G3110,"11970605964","47476264","+32.9318277","-109.8783103"
"856",32.04806,-110.656,"536","46060","46060","Tucson, AZ","Tucson, AZ Metro Area",M1,"1",G3110,"23798597214","5112470","+32.1280427","-111.7836574"
"857",32.01199,-111.195,"536","46060","46060","Tucson, AZ","Tucson, AZ Metro Area",M1,"1",G3110,"23798597214","5112470","+32.1280427","-111.7836574"
"859",34.22571,-109.815,,,,,,,,,,,,
"860",35.94106,-111.45,,"22380","22380","Flagstaff, AZ","Flagstaff, AZ Metro Area",M1,"1",G3110,"48217246133","116631412","+35.8296919","-111.7737277"
"863",34.73552,-112.237,,"39150","39150","Prescott Valley-Prescott, AZ","Prescott Valley-Prescott, AZ Metro Area",M1,"1",G3110,"21038727465","11501576","+34.6310710","-112.5772247"
"864",35.59866,-113.787,,"29420","29420","Lake Havasu City-Kingman, AZ","Lake Havasu City-Kingman, AZ Metro Area",M1,"1",G3110,"34529358909","333447540","+35.7177050","-113.7496891"
"865",35.93609,-109.565,,,,,,,,,,,,
"870",35.13341,-106.875,"106","10740","10740","Albuquerque, NM","Albuquerque, NM Metro Area",M1,"1",G3110,"24043702359","31778159","+35.1234965","-106.4583918"
"871",35.14682,-106.688,"106","10740","10740","Albuquerque, NM","Albuquerque, NM Metro Area",M1,"1",G3110,"24043702359","31778159","+35.1234965","-106.4583918"
"873",35.48372,-108.31,,"23700","23700","Gallup, NM","Gallup, NM Micro Area",M2,"2",G3110,"14117193195","13684636","+35.5838784","-108.2532659"
"874",36.50906,-108.319,,"22140","22140","Farmington, NM","Farmington, NM Metro Area",M1,"1",G3110,"14289491641","54966780","+36.5116245","-108.3245778"
"875",36.29592,-106.223,"106","21580","21580","EspaÃ±ola, NM","EspaÃ±ola, NM Micro Area",M2,"2",G3110,"15179590198","91466278","+36.5096687","-106.6939829"
"877",36.11735,-104.617,"106","29780","29780","Las Vegas, NM","Las Vegas, NM Micro Area",M2,"2",G3110,"17217629079","57473567","+35.6440668","-104.8630266"
"878",33.97677,-107.658,,,,,,,,,,,,
"879",33.1184,-107.13,,,,,,,,,,,,
"880",32.35436,-108.017,,"19700","19700","Deming, NM","Deming, NM Micro Area",M2,"2",G3110,"7679776973","433660","+32.1845231","-107.7471911"
"881",34.29239,-103.798,"188","38780","38780","Portales, NM","Portales, NM Micro Area",M2,"2",G3110,"6335242828","18679735","+34.0212068","-103.4830039"
"882",32.93889,-104.044,,"16100","16100","Carlsbad-Artesia, NM","Carlsbad-Artesia, NM Micro Area",M2,"2",G3110,"10816683024","56498061","+32.4578347","-104.3064338"
"883",33.22819,-105.55,,"10460","10460","Alamogordo, NM","Alamogordo, NM Micro Area",M2,"2",G3110,"17126456785","36943378","+32.6155988","-105.7513079"
"884",35.68989,-103.852,,,,,,,,,,,,
"890",37.5456,-115.799,,,,,,,,,,,,
"891",36.15793,-115.472,"332","29820","29820","Las Vegas-Henderson-Paradise, NV","Las Vegas-Henderson-Paradise, NV Metro Area",M1,"1",G3110,"20439276974","438416032","+36.2142575","-115.0138120"
"893",39.55021,-115.704,,,,,,,,,,,,
"894",40.25313,-118.544,,,,,,,,,,,,
"895",39.75169,-119.767,"456","39900","39900","Reno, NV","Reno, NV Metro Area",M1,"1",G3110,"17042460297","584618557","+40.5007953","-119.7311608"
"897",39.17961,-119.759,"456","16180","16180","Carson City, NV","Carson City, NV Metro Area",M1,"1",G3110,"374670880","32586219","+39.1530598","-119.7473681"
"898",41.06543,-115.536,,"21220","21220","Elko, NV","Elko, NV Micro Area",M2,"2",G3110,"55294001557","85843440","+40.9060857","-115.5545775"
"900",34.04351,-118.312,"348","31080","31080","Los Angeles-Long Beach-Anaheim, CA","Los Angeles-Long Beach-Anaheim, CA Metro Area",M1,"1",G3110,"12565229275","2195417329","+34.1087033","-118.1827533"
"902",33.99061,-118.522,"348","31080","31080","Los Angeles-Long Beach-Anaheim, CA","Los Angeles-Long Beach-Anaheim, CA Metro Area",M1,"1",G3110,"12565229275","2195417329","+34.1087033","-118.1827533"
"903",33.95369,-118.346,"348","31080","31080","Los Angeles-Long Beach-Anaheim, CA","Los Angeles-Long Beach-Anaheim, CA Metro Area",M1,"1",G3110,"12565229275","2195417329","+34.1087033","-118.1827533"
"904",34.02354,-118.483,"348","31080","31080","Los Angeles-Long Beach-Anaheim, CA","Los Angeles-Long Beach-Anaheim, CA Metro Area",M1,"1",G3110,"12565229275","2195417329","+34.1087033","-118.1827533"
"905",33.83611,-118.333,"348","31080","31080","Los Angeles-Long Beach-Anaheim, CA","Los Angeles-Long Beach-Anaheim, CA Metro Area",M1,"1",G3110,"12565229275","2195417329","+34.1087033","-118.1827533"
"906",33.93159,-118.033,"348","31080","31080","Los Angeles-Long Beach-Anaheim, CA","Los Angeles-Long Beach-Anaheim, CA Metro Area",M1,"1",G3110,"12565229275","2195417329","+34.1087033","-118.1827533"
"907",33.44007,-118.34,"348","31080","31080","Los Angeles-Long Beach-Anaheim, CA","Los Angeles-Long Beach-Anaheim, CA Metro Area",M1,"1",G3110,"12565229275","2195417329","+34.1087033","-118.1827533"
"908",33.80562,-118.167,"348","31080","31080","Los Angeles-Long Beach-Anaheim, CA","Los Angeles-Long Beach-Anaheim, CA Metro Area",M1,"1",G3110,"12565229275","2195417329","+34.1087033","-118.1827533"
"910",34.23965,-118.137,"348","31080","31080","Los Angeles-Long Beach-Anaheim, CA","Los Angeles-Long Beach-Anaheim, CA Metro Area",M1,"1",G3110,"12565229275","2195417329","+34.1087033","-118.1827533"
"911",34.15148,-118.126,"348","31080","31080","Los Angeles-Long Beach-Anaheim, CA","Los Angeles-Long Beach-Anaheim, CA Metro Area",M1,"1",G3110,"12565229275","2195417329","+34.1087033","-118.1827533"
"912",34.18424,-118.246,"348","31080","31080","Los Angeles-Long Beach-Anaheim, CA","Los Angeles-Long Beach-Anaheim, CA Metro Area",M1,"1",G3110,"12565229275","2195417329","+34.1087033","-118.1827533"
"913",34.37267,-118.572,"348","31080","31080","Los Angeles-Long Beach-Anaheim, CA","Los Angeles-Long Beach-Anaheim, CA Metro Area",M1,"1",G3110,"12565229275","2195417329","+34.1087033","-118.1827533"
"914",34.17809,-118.465,"348","31080","31080","Los Angeles-Long Beach-Anaheim, CA","Los Angeles-Long Beach-Anaheim, CA Metro Area",M1,"1",G3110,"12565229275","2195417329","+34.1087033","-118.1827533"
"915",34.18864,-118.324,"348","31080","31080","Los Angeles-Long Beach-Anaheim, CA","Los Angeles-Long Beach-Anaheim, CA Metro Area",M1,"1",G3110,"12565229275","2195417329","+34.1087033","-118.1827533"
"916",34.17155,-118.389,"348","31080","31080","Los Angeles-Long Beach-Anaheim, CA","Los Angeles-Long Beach-Anaheim, CA Metro Area",M1,"1",G3110,"12565229275","2195417329","+34.1087033","-118.1827533"
"917",34.09655,-117.755,"348","31080","31080","Los Angeles-Long Beach-Anaheim, CA","Los Angeles-Long Beach-Anaheim, CA Metro Area",M1,"1",G3110,"12565229275","2195417329","+34.1087033","-118.1827533"
"918",34.08396,-118.136,"348","31080","31080","Los Angeles-Long Beach-Anaheim, CA","Los Angeles-Long Beach-Anaheim, CA Metro Area",M1,"1",G3110,"12565229275","2195417329","+34.1087033","-118.1827533"
"919",32.7395,-116.622,,"41740","41740","San Diego-Chula Vista-Carlsbad, CA","San Diego-Chula Vista-Carlsbad, CA Metro Area",M1,"1",G3110,"10904373558","817404622","+33.0236041","-116.7761174"
"920",33.15966,-116.725,,"41740","41740","San Diego-Chula Vista-Carlsbad, CA","San Diego-Chula Vista-Carlsbad, CA Metro Area",M1,"1",G3110,"10904373558","817404622","+33.0236041","-116.7761174"
"921",32.81156,-117.119,,"41740","41740","San Diego-Chula Vista-Carlsbad, CA","San Diego-Chula Vista-Carlsbad, CA Metro Area",M1,"1",G3110,"10904373558","817404622","+33.0236041","-116.7761174"
"922",33.66278,-115.565,"348","40140","40140","Riverside-San Bernardino-Ontario, CA","Riverside-San Bernardino-Ontario, CA Metro Area",M1,"1",G3110,"70646788920","340297621","+34.5384763","-116.1345414"
"923",35.26711,-116.252,"348","40140","40140","Riverside-San Bernardino-Ontario, CA","Riverside-San Bernardino-Ontario, CA Metro Area",M1,"1",G3110,"70646788920","340297621","+34.5384763","-116.1345414"
"924",34.22959,-117.303,"348","40140","40140","Riverside-San Bernardino-Ontario, CA","Riverside-San Bernardino-Ontario, CA Metro Area",M1,"1",G3110,"70646788920","340297621","+34.5384763","-116.1345414"
"925",33.6653,-116.953,"348","40140","40140","Riverside-San Bernardino-Ontario, CA","Riverside-San Bernardino-Ontario, CA Metro Area",M1,"1",G3110,"70646788920","340297621","+34.5384763","-116.1345414"
"926",33.61599,-117.685,"348","31080","31080","Los Angeles-Long Beach-Anaheim, CA","Los Angeles-Long Beach-Anaheim, CA Metro Area",M1,"1",G3110,"12565229275","2195417329","+34.1087033","-118.1827533"
"927",33.73416,-117.867,"348","31080","31080","Los Angeles-Long Beach-Anaheim, CA","Los Angeles-Long Beach-Anaheim, CA Metro Area",M1,"1",G3110,"12565229275","2195417329","+34.1087033","-118.1827533"
"928",33.84215,-117.707,"348","31080","31080","Los Angeles-Long Beach-Anaheim, CA","Los Angeles-Long Beach-Anaheim, CA Metro Area",M1,"1",G3110,"12565229275","2195417329","+34.1087033","-118.1827533"
"930",34.3815,-119.094,"348","37100","37100","Oxnard-Thousand Oaks-Ventura, CA","Oxnard-Thousand Oaks-Ventura, CA Metro Area",M1,"1",G3110,"4771987962","947345370","+34.3587415","-119.1331432"
"931",34.53184,-119.83,,"42200","42200","Santa Maria-Santa Barbara, CA","Santa Maria-Santa Barbara, CA Metro Area",M1,"1",G3110,"7084063392","2729751706","+34.5370572","-120.0399729"
"932",35.78066,-119.323,,"12540","12540","Bakersfield, CA","Bakersfield, CA Metro Area",M1,"1",G3110,"21062540828","78680980","+35.3466288","-118.7295064"
"933",35.36931,-119.009,,"12540","12540","Bakersfield, CA","Bakersfield, CA Metro Area",M1,"1",G3110,"21062540828","78680980","+35.3466288","-118.7295064"
"934",35.3489,-120.443,,"42020","42020","San Luis Obispo-Paso Robles, CA","San Luis Obispo-Paso Robles, CA Metro Area",M1,"1",G3110,"8548557892","815573121","+35.3852242","-120.4475445"
"935",36.14696,-118.026,,,,,,,,,,,,
"936",36.92672,-119.785,"260","31460","31460","Madera, CA","Madera, CA Metro Area",M1,"1",G3110,"5534617472","42245931","+37.2098213","-119.7498023"
"937",36.70855,-119.838,"260","23420","23420","Fresno, CA","Fresno, CA Metro Area",M1,"1",G3110,"15432139300","136609898","+36.7610058","-119.6550193"
"939",36.31098,-121.437,,"41500","41500","Salinas, CA","Salinas, CA Metro Area",M1,"1",G3110,"8499616876","1267800137","+36.2401070","-121.3155723"
"940",37.40928,-122.296,"488","41860","41860","San Francisco-Oakland-Berkeley, CA","San Francisco-Oakland-Berkeley, CA Metro Area",M1,"1",G3110,"6398229497","2475477450","+37.7737185","-122.2744317"
"941",37.74724,-122.439,"488","41860","41860","San Francisco-Oakland-Berkeley, CA","San Francisco-Oakland-Berkeley, CA Metro Area",M1,"1",G3110,"6398229497","2475477450","+37.7737185","-122.2744317"
"943",37.42765,-122.146,"488","41940","41940","San Jose-Sunnyvale-Santa Clara, CA","San Jose-Sunnyvale-Santa Clara, CA Metro Area",M1,"1",G3110,"6940482016","38314684","+36.9084718","-121.3713721"
"944",37.54963,-122.305,"488","41860","41860","San Francisco-Oakland-Berkeley, CA","San Francisco-Oakland-Berkeley, CA Metro Area",M1,"1",G3110,"6398229497","2475477450","+37.7737185","-122.2744317"
"945",38.04567,-122.012,"488","41860","41860","San Francisco-Oakland-Berkeley, CA","San Francisco-Oakland-Berkeley, CA Metro Area",M1,"1",G3110,"6398229497","2475477450","+37.7737185","-122.2744317"
"946",37.78957,-122.216,"488","41860","41860","San Francisco-Oakland-Berkeley, CA","San Francisco-Oakland-Berkeley, CA Metro Area",M1,"1",G3110,"6398229497","2475477450","+37.7737185","-122.2744317"
"947",37.87908,-122.27,"488","41860","41860","San Francisco-Oakland-Berkeley, CA","San Francisco-Oakland-Berkeley, CA Metro Area",M1,"1",G3110,"6398229497","2475477450","+37.7737185","-122.2744317"
"948",37.9545,-122.332,"488","41860","41860","San Francisco-Oakland-Berkeley, CA","San Francisco-Oakland-Berkeley, CA Metro Area",M1,"1",G3110,"6398229497","2475477450","+37.7737185","-122.2744317"
"949",38.12973,-122.714,"488","41860","41860","San Francisco-Oakland-Berkeley, CA","San Francisco-Oakland-Berkeley, CA Metro Area",M1,"1",G3110,"6398229497","2475477450","+37.7737185","-122.2744317"
"950",36.84229,-121.409,"488","41940","41940","San Jose-Sunnyvale-Santa Clara, CA","San Jose-Sunnyvale-Santa Clara, CA Metro Area",M1,"1",G3110,"6940482016","38314684","+36.9084718","-121.3713721"
"951",37.32634,-121.779,"488","41940","41940","San Jose-Sunnyvale-Santa Clara, CA","San Jose-Sunnyvale-Santa Clara, CA Metro Area",M1,"1",G3110,"6940482016","38314684","+36.9084718","-121.3713721"
"952",38.13045,-120.851,,,,,,,,,,,,
"953",37.67341,-120.462,"488","33700","33700","Modesto, CA","Modesto, CA Metro Area",M1,"1",G3110,"3874667416","46351766","+37.5623162","-121.0028311"
"954",39.12904,-123.134,,"46380","46380","Ukiah, CA","Ukiah, CA Micro Area",M2,"2",G3110,"9081426663","962946206","+39.4323876","-123.4428811"
"955",40.91199,-123.758,,"21700","21700","Eureka-Arcata, CA","Eureka-Arcata, CA Micro Area",M2,"2",G3110,"9241426488","1253864712","+40.7066554","-123.9261757"
"956",38.66776,-121.178,"472","40900","40900","Sacramento-Roseville-Folsom, CA","Sacramento-Roseville-Folsom, CA Metro Area",M1,"1",G3110,"13195734333","548112798","+38.7896779","-121.0057504"
"957",38.94097,-120.774,"472","40900","40900","Sacramento-Roseville-Folsom, CA","Sacramento-Roseville-Folsom, CA Metro Area",M1,"1",G3110,"13195734333","548112798","+38.7896779","-121.0057504"
"958",38.57997,-121.441,"472","40900","40900","Sacramento-Roseville-Folsom, CA","Sacramento-Roseville-Folsom, CA Metro Area",M1,"1",G3110,"13195734333","548112798","+38.7896779","-121.0057504"
"959",39.51995,-121.657,,"17020","17020","Chico, CA","Chico, CA Metro Area",M1,"1",G3110,"4238488156","105261063","+39.6659588","-121.6019188"
"960",40.94483,-122.14,"454","39820","39820","Redding, CA","Redding, CA Metro Area",M1,"1",G3110,"9778407493","186302040","+40.7605142","-122.0435556"
"961",40.51895,-120.39,,"45000","45000","Susanville, CA","Susanville, CA Micro Area",M2,"2",G3110,"11761615584","463426056","+40.7210862","-120.6299518"
"967",19.82837,-156.484,,,,,,,,,,,,
"968",21.33266,-157.835,,"46520","46520","Urban Honolulu, HI","Urban Honolulu, HI Metro Area",M1,"1",G3110,"1555472299","4055017343","+21.5800225","-158.1234063"
"969",14.6001,145.1665,,,,,,,,,,,,
"970",45.35902,-121.721,"440","38900","38900","Portland-Vancouver-Hillsboro, OR-WA","Portland-Vancouver-Hillsboro, OR-WA Metro Area",M1,"1",G3110,"17318829207","356146512","+45.6006221","-122.4843780"
"971",45.59656,-123.5,,,,,,,,,,,,
"972",45.56163,-122.707,"440","38900","38900","Portland-Vancouver-Hillsboro, OR-WA","Portland-Vancouver-Hillsboro, OR-WA Metro Area",M1,"1",G3110,"17318829207","356146512","+45.6006221","-122.4843780"
"973",44.7005,-123.125,"440","10540","10540","Albany-Lebanon, OR","Albany-Lebanon, OR Metro Area",M1,"1",G3110,"5923936549","50054677","+44.4888982","-122.5372084"
"974",43.42333,-123.31,,"40700","40700","Roseburg, OR","Roseburg, OR Micro Area",M2,"2",G3110,"13042325534","251974549","+43.2863277","-123.1544760"
"975",42.39997,-123.024,"366","32780","32780","Medford, OR","Medford, OR Metro Area",M1,"1",G3110,"7208597903","46766412","+42.4116214","-122.6756106"
"976",42.65253,-120.796,,,,,,,,,,,,
"977",43.56016,-120.05,,,,,,,,,,,,
"978",45.13721,-118.565,,"25840","25840","Hermiston-Pendleton, OR","Hermiston-Pendleton, OR Micro Area",M2,"2",G3110,"13587020988","85993521","+45.5446021","-119.0761905"
"979",43.28406,-117.67,"147","36620","36620","Ontario, OR-ID","Ontario, OR-ID Micro Area",M2,"2",G3110,"26662898176","117871722","+43.2258691","-117.6199330"
"980",47.42573,-121.848,"500","42660","42660","Seattle-Tacoma-Bellevue, WA","Seattle-Tacoma-Bellevue, WA Metro Area",M1,"1",G3110,"15202855929","1136512340","+47.4905993","-121.8339960"
"981",47.59811,-122.352,"500","42660","42660","Seattle-Tacoma-Bellevue, WA","Seattle-Tacoma-Bellevue, WA Metro Area",M1,"1",G3110,"15202855929","1136512340","+47.4905993","-121.8339960"
"982",48.31968,-121.84,"500","34580","34580","Mount Vernon-Anacortes, WA","Mount Vernon-Anacortes, WA Metro Area",M1,"1",G3110,"4481252102","483846689","+48.4932917","-121.8157703"
"983",47.42295,-122.903,"500","43220","43220","Shelton, WA","Shelton, WA Micro Area",M2,"2",G3110,"2485238914","236949795","+47.3541257","-123.1738498"
"984",47.14476,-122.502,"500","42660","42660","Seattle-Tacoma-Bellevue, WA","Seattle-Tacoma-Bellevue, WA Metro Area",M1,"1",G3110,"15202855929","1136512340","+47.4905993","-121.8339960"
"985",47.06316,-123.391,,"10140","10140","Aberdeen, WA","Aberdeen, WA Micro Area",M2,"2",G3110,"4924766221","834338731","+47.1137324","-123.8267349"
"986",46.03114,-122.154,"440","38900","38900","Portland-Vancouver-Hillsboro, OR-WA","Portland-Vancouver-Hillsboro, OR-WA Metro Area",M1,"1",G3110,"17318829207","356146512","+45.6006221","-122.4843780"
"988",47.99822,-119.95,,,,,,,,,,,,
"989",46.80073,-120.641,,"49420","49420","Yakima, WA","Yakima, WA Metro Area",M1,"1",G3110,"11122733955","41189156","+46.4565581","-120.7401446"
"990",47.58071,-117.594,"518","44060","44060","Spokane-Spokane Valley, WA","Spokane-Spokane Valley, WA Metro Area",M1,"1",G3110,"10984888100","206438799","+48.0916180","-117.6634720"
"991",47.92711,-118.148,"518","44060","44060","Spokane-Spokane Valley, WA","Spokane-Spokane Valley, WA Metro Area",M1,"1",G3110,"10984888100","206438799","+48.0916180","-117.6634720"
"992",47.68063,-117.409,"518","44060","44060","Spokane-Spokane Valley, WA","Spokane-Spokane Valley, WA Metro Area",M1,"1",G3110,"10984888100","206438799","+48.0916180","-117.6634720"
"993",46.39933,-118.842,"313","28420","28420","Kennewick-Richland, WA","Kennewick-Richland, WA Metro Area",M1,"1",G3110,"7618948905","214881824","+46.3639636","-119.2540459"
"994",46.19957,-117.209,,"30300","30300","Lewiston, ID-WA","Lewiston, ID-WA Metro Area",M1,"1",G3110,"3844567726","32544644","+46.2516957","-116.9250166"
"995",60.89296,-153.745,,,,,,,,,,,,
"996",60.89826,-155.335,,,,,,,,,,,,
"997",66.3421,-154.447,,,,,,,,,,,,
"998",58.05359,-134.95,,,,,,,,,,,,
"999",55.71415,-131.774,,"28540","28540","Ketchikan, AK","Ketchikan, AK Micro Area",M2,"2",G3110,"12579378509","4651615675","+55.4499378","-131.1066847"
